Location ID,Location Name,Location Type,Street Address,City,State,Country,Storage Capacity (No. of Batches),Status
53737eb7-448a-4222-a9a1-1d5e6ddaa206,amazon.co.jp,Retailer,3 Hazelcrest Plaza,Lafayette,Louisiana,United States,6939,FALSE
1892bfe4-432f-4ed8-b403-0a3707dfcb31,yelp.com,Storage,5702 Vernon Terrace,Vary,,Ukraine,5613,FALSE
e2a2d4c3-7ce6-43c9-9448-9a00111eadcc,goo.gl,Distributor,9115 Hudson Center,Longjie,,China,7681,TRUE
5e713277-4cf2-40cd-a7f6-3e9519f21c35,opera.com,Distributor,566 Mitchell Way,Zama,,Japan,7751,TRUE
c9029099-2dc1-4c86-b827-831c1869cc3a,mac.com,Distributor,49 Hoard Trail,Timba Lauk,,Indonesia,5847,FALSE
df558cb3-b512-4765-95c7-c1e7b52337fb,jigsy.com,Storage,525 Nobel Center,Vitarte,,Peru,9358,TRUE
c2837f37-d9f8-4c15-96f7-4e39e4a15ed9,lycos.com,Manufacturer,3344 Schiller Crossing,Lingkou,,China,8205,FALSE
68227e66-77c6-47d5-8b83-7d3a58f44e69,ocn.ne.jp,Manufacturer,110 Springview Drive,Sumberkertokrajan,,Indonesia,6881,TRUE
b4918cce-4df9-4eb2-8b98-d7b5c96da4c7,infoseek.co.jp,Retailer,2480 Hauk Avenue,Międzyzdroje,,Poland,7549,TRUE
04e3f68b-3a0f-4cda-949b-48163c3375db,tinyurl.com,Retailer,5 Westport Way,Kleszczewo,,Poland,8474,FALSE
a069e516-3858-4ba6-bf1e-ec44d4b437b3,quantcast.com,Storage,3 Emmet Terrace,San Juan Bautista,,Guatemala,5343,FALSE
b9549d12-ab57-46f7-b9d8-20ec3a4b9c41,t-online.de,Manufacturer,2 Marcy Road,Paris 13,Île-de-France,France,8251,TRUE
38ef6e82-a12d-48ab-b35a-ed525ace3590,google.com.br,Manufacturer,5119 Summit Drive,Ngoc Hon Doc,,Vietnam,8447,TRUE
21d4c05d-e722-4411-bf39-3e55989bf478,woothemes.com,Retailer,02 Pleasure Pass,Gambut,,Indonesia,6393,TRUE
691fadf9-6262-4ae4-97e8-2dbbd60c65a5,timesonline.co.uk,Distributor,2768 Farragut Center,Wonosari,,Indonesia,6135,TRUE
2dcc97bc-50e7-4d28-a3be-9c96512f9774,tripod.com,Storage,701 Menomonie Pass,Al Ḩudaydah,,Yemen,6514,TRUE
11ae88d1-f26d-4bca-8c38-fa21168b138e,pbs.org,Distributor,3658 Hovde Park,Łąck,,Poland,8464,FALSE
220084f0-9de0-45f1-9d18-ece957d124b3,wikia.com,Manufacturer,831 Colorado Road,Chuoyuan,,China,7617,TRUE
83ef47fe-83f2-4700-9a6b-6ea33b0c229e,marketwatch.com,Manufacturer,291 Delaware Circle,Lukavec,,Czech Republic,9784,TRUE
1b75689c-3565-4af6-b8f8-9ff6643505a7,123-reg.co.uk,Storage,00 Kinsman Terrace,Pulau Pinang,Pulau Pinang,Malaysia,8665,FALSE
445113ec-5530-4f55-ac3e-526a037d45aa,google.it,Storage,37 Corry Drive,Washington,District of Columbia,United States,6788,FALSE
87743061-9a30-48c3-8369-794bf7e1f0ef,weather.com,Distributor,4464 West Alley,Mariel,,Cuba,5863,FALSE
aa1437c1-071e-4348-8a95-4ea2b3165e79,netscape.com,Distributor,680 Merrick Circle,Santa Rita do Passa Quatro,,Brazil,7476,TRUE
ee7ea023-164d-4c3a-b42b-292ce2058a83,nymag.com,Storage,81731 Buena Vista Junction,Suishan,,China,7233,TRUE
dba179eb-6a92-4adb-b0ae-64af6a360649,live.com,Manufacturer,1 Shelley Junction,Louny,,Czech Republic,5961,FALSE
09a1abb6-9466-4d89-8867-20e510ca6469,samsung.com,Distributor,8 Old Shore Pass,Gatbo,,Philippines,6718,FALSE
b2cade41-a526-4029-ac9e-284be951f128,addthis.com,Distributor,8033 Dunning Park,Khelyulya,,Russia,5242,TRUE
ed08d76c-80b5-4a94-b304-d3dd364a35e4,squidoo.com,Retailer,86 5th Place,Nu’erbage,,China,5110,TRUE
f1397e1f-6e8c-45da-b8fc-8048e406ff7e,ucoz.com,Distributor,767 Anniversary Park,Bayeux,,Brazil,5069,FALSE
d73fccea-12fc-4b61-adc1-f21aa6b6d092,mac.com,Distributor,31293 Grasskamp Way,Pervomayskoye,,Russia,6953,FALSE
07a5a0d2-153d-49d6-87f4-50ac244c325e,etsy.com,Storage,21148 Barby Circle,Taurisma,,Peru,9500,FALSE
9178edd3-2ea9-42f7-9979-c3587e6d9bd6,cdc.gov,Retailer,6683 Springview Way,Pignon,,Haiti,9145,FALSE
7d50e761-f807-4b21-ab88-52e93ee2a178,bloglines.com,Manufacturer,959 Buena Vista Avenue,Reisjärvi,,Finland,8240,FALSE
157c7fab-4b04-41d1-a3b8-4d3046a5136d,telegraph.co.uk,Retailer,56 Melvin Parkway,Balekersukamaju,,Indonesia,7240,FALSE
da905f8f-644b-4d92-b2d4-821b57cfe7d3,scribd.com,Retailer,7029 Dorton Terrace,Weihai,,China,7882,TRUE
aeba8f64-2871-4f1b-a0e3-0d3ead4e0909,soup.io,Manufacturer,0967 Buena Vista Lane,Mandepa Barat,,Indonesia,9761,TRUE
03cbeeac-4b50-4566-95b4-e09f14aee2db,pen.io,Storage,48466 Brown Court,Basiao,,Philippines,8492,TRUE
1d265b76-11e8-4c8f-8984-2dbf657ada4d,who.int,Retailer,06828 Main Terrace,Maoping,,China,8628,TRUE
49911375-6cb9-4960-bac2-bc717c1e85b4,google.ru,Retailer,5 Loomis Plaza,Kanazawa-shi,,Japan,6772,FALSE
89a36141-2fba-46a7-abcf-629468dc17ba,un.org,Manufacturer,6221 6th Crossing,Yanglin,,China,6281,TRUE
46cfbc6f-1d58-4ecd-b989-79ca80455664,zdnet.com,Distributor,1782 Becker Alley,Changxingbao,,China,9218,TRUE
60aef9d7-1da5-474b-a3ac-25110fa5688a,booking.com,Distributor,4175 Melvin Place,São Carlos,,Brazil,6728,TRUE
b3321f2b-7aa1-4148-817d-63f723076b83,scribd.com,Storage,592 Towne Lane,Bourg-en-Bresse,Rhône-Alpes,France,6521,TRUE
9739a5f6-53b3-4c5a-b33b-3e2878c19e51,geocities.jp,Manufacturer,32 Caliangt Drive,Pingqiao,,China,8554,FALSE
571de12e-cda5-40d0-ac56-497808ea38a3,cnet.com,Retailer,08810 Michigan Center,Sambava,,Madagascar,7871,TRUE
ff14cccb-bcc0-4808-892f-a57475bb1994,google.cn,Storage,3108 Sundown Court,Heishui,,China,6045,TRUE
3e59554b-599e-4606-be20-21cf119e8844,cnn.com,Retailer,2316 Erie Circle,Cicurug,,Indonesia,8686,TRUE
0ce37371-0e85-4bee-90d2-a8afcc5433d4,alibaba.com,Retailer,4320 Buell Court,Lajeosa,Coimbra,Portugal,8486,FALSE
2ec19753-3162-43e1-baf6-eb3553349240,t-online.de,Manufacturer,72 Summit Point,Cabak Satu,,Indonesia,5218,TRUE
2d833f9c-b42b-48a2-ba08-d30151670cb4,posterous.com,Manufacturer,2 Messerschmidt Place,Arsen’yev,,Russia,6092,TRUE
7c3a8ea3-f0c8-4cef-a277-e732bcdfa6a6,cbsnews.com,Retailer,88 Russell Court,Santa Teresa First,,Philippines,8792,FALSE
1251b44a-8b65-4175-91b4-d8da1a921c36,toplist.cz,Distributor,5992 Everett Place,Novo Cruzeiro,,Brazil,8928,TRUE
1648cb75-5339-4dab-b79b-48a5b95118ab,360.cn,Storage,548 Pearson Way,Quebrada Canoa,,Panama,5355,TRUE
c9654d07-54ab-495b-a4f9-18afde0e6533,behance.net,Manufacturer,35 Nobel Junction,Taurija,,Peru,6769,FALSE
fc0a5123-e597-461a-acb4-19689c01f4ef,apache.org,Manufacturer,238 Buell Street,Postoloprty,,Czech Republic,6509,TRUE
867013a9-f7d3-4058-bddb-259aec771e47,walmart.com,Storage,54 Merry Alley,Looc,,Philippines,9935,TRUE
4cdf52ae-0bda-4691-8f90-a265dd41c424,posterous.com,Retailer,75713 Autumn Leaf Plaza,Shizunai-furukawachō,,Japan,7981,TRUE
0f51fa96-d6d4-4313-b7ba-7d7a300c0aa9,unicef.org,Storage,7710 Elgar Point,Tabaquite,,Trinidad and Tobago,7847,TRUE
1addbc19-9518-499a-bc4e-3ed0428f7551,biblegateway.com,Manufacturer,0399 Continental Junction,San Francisco,,Philippines,8306,FALSE
6995aae9-d143-4934-bb63-7d308f93143e,harvard.edu,Storage,9 Sommers Park,Kansas City,Missouri,United States,8181,TRUE
e8260d8a-b1fb-4d8d-a7af-2e9932b32293,infoseek.co.jp,Retailer,65711 Independence Junction,Krutaya Gorka,,Russia,9994,FALSE
2bf3219b-89c9-413a-9e64-a58a7d46f97d,washington.edu,Manufacturer,96 Holy Cross Hill,Łąka Prudnicka,,Poland,9390,TRUE
9b9db21d-d396-4405-bcbe-5600aa18baba,paginegialle.it,Distributor,0 Ridge Oak Drive,Yunlong,,China,9705,FALSE
17fdce4e-a185-4ec1-a2fd-ac622d432593,pbs.org,Manufacturer,7096 Mayer Junction,Péfki,,Greece,8737,FALSE
8eaf77f9-e289-442a-bd89-5460ff524de9,techcrunch.com,Manufacturer,23 Darwin Lane,Ajuy,,Philippines,8668,FALSE
247fc6fa-1162-4f67-accf-be179967302f,deliciousdays.com,Storage,1 Granby Plaza,Bolekhiv,,Ukraine,7700,FALSE
4c772e46-3af1-413f-a2d0-8c559348ddc9,state.tx.us,Retailer,83 Kim Way,Qukuhu,,China,7290,TRUE
99c95199-6192-4463-8336-e6d177583556,amazon.co.jp,Distributor,8385 Sauthoff Place,Kalmar,Kalmar,Sweden,5926,TRUE
93ed9ebd-8b3e-44bb-b304-e296d2c8d2af,amazonaws.com,Distributor,245 3rd Crossing,Paraguaçu,,Brazil,6988,TRUE
8c120d7a-01dc-4d5f-91bc-21f66dc61ec4,4shared.com,Distributor,36160 Colorado Hill,Zoumachang,,China,8394,FALSE
fcd906f6-7b23-4db0-adf8-6822f7701816,illinois.edu,Manufacturer,73558 Park Meadow Hill,Tanahwulan,,Indonesia,7114,TRUE
be7e5e8b-cc82-499e-bfff-b759014b71db,acquirethisname.com,Distributor,25895 Caliangt Center,Bobrov,,Russia,9702,TRUE
e79c0334-208f-4d07-b06d-21107cdf0bcf,nps.gov,Retailer,8 Coolidge Alley,Yangqing,,China,5243,FALSE
656f8b0f-5acc-43bf-9967-230e52fbf53d,facebook.com,Manufacturer,4640 Portage Plaza,Nowosielce-Gniewosz,,Poland,9755,FALSE
7b126a76-3942-409f-9e88-a6a014ff3ab1,booking.com,Retailer,2 Novick Hill,Venta,,Lithuania,6132,FALSE
78339c27-45da-48ae-9758-ebd79ec45b38,businesswire.com,Distributor,13075 Burning Wood Court,Ödeshög,Östergötland,Sweden,8106,FALSE
86ff5aec-d6ef-4eff-9fe3-094ca5f30afc,ucoz.com,Distributor,36 Messerschmidt Terrace,Luksuhin,,Philippines,8880,FALSE
d410f4f2-7b4d-4f6a-93ac-adb27c32d0b2,wordpress.org,Manufacturer,96631 Melvin Pass,Villa Dolores,,Argentina,8973,FALSE
4d1e4362-52da-476e-868b-aece06e29289,youku.com,Distributor,22341 Kingsford Lane,Yixi,,China,9983,FALSE
d0f0c7f0-aa9e-45e9-838d-e8a126de67d1,ed.gov,Retailer,1 Corben Trail,Baoxing,,China,7661,FALSE
77270cd0-fe28-4353-b0ac-3e20d44915cf,youtube.com,Distributor,0 Lillian Junction,Payapa,,Philippines,5937,TRUE
55ae508b-99ae-4129-a3a8-2fa5f2a1fa8f,usnews.com,Storage,95 Main Hill,Yangdu,,China,7119,FALSE
b94299b6-2b0a-49f0-8bd2-56809011346e,facebook.com,Retailer,72 Coolidge Lane,Zitong,,China,7319,FALSE
beffadcf-99f6-4ced-b37a-cc338df5c852,so-net.ne.jp,Manufacturer,80 Goodland Center,Pangpang,,Philippines,9349,TRUE
d1d9dde0-e677-478f-b46c-a14472c8c78e,tripod.com,Retailer,58329 Larry Point,Komatsushimachō,,Japan,6694,TRUE
2473541a-05ec-4ec7-a45b-5176da282fae,sourceforge.net,Retailer,686 Sugar Park,Talghar,,Kazakhstan,6460,FALSE
1c0378c2-7165-4143-aa5b-0ce92e80c75d,umich.edu,Retailer,0185 Quincy Plaza,Aksu,,Kazakhstan,8576,TRUE
1bf28235-343c-47d4-8896-d392a9a9d45b,e-recht24.de,Manufacturer,67 Kinsman Street,Nakamura,,Japan,8984,TRUE
f6be182a-4604-44ca-837f-38893e241014,amazonaws.com,Retailer,3 Rigney Park,Bình Thủy,,Vietnam,7954,FALSE
3666ed56-7728-4d81-985c-13245254505f,accuweather.com,Manufacturer,28 Laurel Center,Le Puy-en-Velay,Auvergne,France,6649,FALSE
857a7f66-c39f-462a-9654-1651439fcad6,google.co.uk,Retailer,6893 Elgar Pass,Maleevsk,,Kazakhstan,9767,TRUE
db5912d0-c842-4d61-b1ea-98ffb90258b9,domainmarket.com,Storage,74 Parkside Place,Kan,,China,7819,FALSE
2566b04f-0705-4562-91e2-395ac01d63e7,ifeng.com,Manufacturer,3299 Schmedeman Trail,Linamon,,Philippines,6913,FALSE
b9475bda-2ff2-4d31-b653-b772e04bf62f,behance.net,Storage,3064 Hovde Avenue,Kosava,,Belarus,8757,TRUE
fa68a789-cf81-49ce-9835-82f9aa38b436,admin.ch,Storage,1450 Old Gate Road,Vicente Guerrero,Guerrero,Mexico,9207,FALSE
e9f93746-0c44-420b-908e-c242903a6844,samsung.com,Retailer,8 Hazelcrest Drive,Jetis,,Indonesia,9706,TRUE
f404e6ec-1615-4410-b1b7-6a1ae3f2c5dd,yahoo.com,Manufacturer,59994 Summerview Pass,Yakovlevskoye,,Russia,9861,FALSE
6e87796b-ca3e-46a9-87b8-212ace618c91,rakuten.co.jp,Retailer,756 Lakeland Drive,Chenzhou,,China,9854,TRUE
3bfa238f-fe17-4fd6-9b52-8f0b74d64d15,ebay.com,Retailer,5742 Superior Pass,Nacaome,,Honduras,5404,TRUE
118a314a-329e-405f-8698-f67a9a485a34,is.gd,Manufacturer,9 Susan Way,Tongjing,,China,8707,FALSE
fc4b72ca-48cd-4531-a696-714e78658d8c,networkadvertising.org,Retailer,4 Blaine Circle,Soasio,,Indonesia,5450,TRUE
90dfbd9d-3440-4755-83b8-1ec5e69da398,earthlink.net,Manufacturer,18 Trailsway Circle,Guadalupe,Mexico,Mexico,7353,FALSE
6c421d02-6de2-4272-8039-88d6d4b68a75,mapquest.com,Retailer,614 Victoria Park,Sorocaba,,Brazil,5998,FALSE
0cd69155-23a2-4620-a79a-abcafc2ec240,hibu.com,Manufacturer,59221 Heath Street,Thành Phố Hạ Long,,Vietnam,8023,TRUE
ef0e59a6-47fc-48ec-91de-a2a243911f65,globo.com,Manufacturer,9974 Redwing Parkway,Longwood,,Ireland,9861,TRUE
f44fd150-c932-47f9-aba4-47bb10e30df6,ovh.net,Manufacturer,898 Commercial Circle,Banggel,,Indonesia,5087,TRUE
5e02c7fd-4b87-4556-81d1-ebded078383e,arizona.edu,Manufacturer,68413 Johnson Lane,Benito Juarez,Chihuahua,Mexico,7706,TRUE
b5a36ec9-3527-45e0-95e3-ca2fbb187231,theguardian.com,Storage,76 Russell Road,Sison,,Philippines,7127,FALSE
7192d5f9-c342-4845-8a05-be8618c62593,umn.edu,Manufacturer,9052 Reindahl Avenue,Semirara,,Philippines,5092,TRUE
2448c2b9-13af-40f1-9201-fd5f0668769f,usnews.com,Retailer,00 Mayer Lane,Wenqiao,,China,5119,TRUE
3ac3f1a2-b906-4116-8aac-3238c0adb83b,weebly.com,Storage,7 Prentice Parkway,Caen,Basse-Normandie,France,7521,FALSE
c131b98c-aef7-4162-bd32-587ded971976,shop-pro.jp,Distributor,3 Waubesa Crossing,Riba de Ave,Braga,Portugal,7534,TRUE
0eb296bd-e342-4f78-b048-ab2f7cc7a31c,whitehouse.gov,Distributor,5 Buhler Trail,Jiaxing,,China,5043,FALSE
db06de1c-d270-4b5d-a091-a195bbc777a7,yahoo.com,Retailer,30 Cambridge Parkway,Erping,,China,5427,TRUE
dc84a997-901a-4215-b2df-29f2d2e8e979,umich.edu,Distributor,58921 Rutledge Way,Dongxiang,,China,8852,FALSE
d957e61a-53d2-40fa-89a9-a4040da77559,vimeo.com,Manufacturer,762 Thierer Road,Rionegro,,Colombia,8022,FALSE
bc95fe82-1797-41f6-a83e-feca54ae1f31,instagram.com,Retailer,9 Bobwhite Court,Chortkiv,,Ukraine,6461,TRUE
33c10b36-ad48-48c2-925b-f62f143743ba,google.de,Distributor,411 Melvin Place,Idkū,,Egypt,8099,TRUE
72ec13ce-9bcf-43ad-908b-976f487dad19,irs.gov,Manufacturer,45869 Maple Wood Parkway,Bordeaux,Aquitaine,France,5456,TRUE
edfc0d47-4c1c-4428-89d8-11e63a1351aa,sourceforge.net,Distributor,60624 Brickson Park Point,Seremban,Negeri Sembilan,Malaysia,8798,FALSE
6929688c-b625-427b-9e68-0cfc5c8e7d09,cmu.edu,Manufacturer,15632 Reindahl Circle,Brahin,,Belarus,6008,TRUE
c589344e-3304-4412-bb33-135702269b5e,networkadvertising.org,Distributor,03872 Debra Center,Campor,,Indonesia,5659,FALSE
9c0847e0-c2dd-4a47-aac6-f5ab02dd273f,goodreads.com,Retailer,4924 Lotheville Circle,Mautapaga Bawah,,Indonesia,9993,TRUE
d76b329a-2c9b-4728-a9b5-8419b64e1549,4shared.com,Distributor,09964 Warner Parkway,Tagana-an,,Philippines,6475,TRUE
7631bfa8-c535-4d2e-8a34-0af854863136,seesaa.net,Distributor,3080 Del Sol Junction,Krajan Joho,,Indonesia,5441,TRUE
fc51b579-ad7e-4db0-9233-7478be9bc857,baidu.com,Manufacturer,698 Loomis Street,Imaan,,Indonesia,6334,TRUE
79742ad6-e482-40f4-af50-384f936db74a,cbslocal.com,Distributor,2 Oak Avenue,Xuji,,China,5355,FALSE
fd826b85-9ba6-4820-916a-cd6a2aae06ff,taobao.com,Storage,4573 Rigney Court,Jiangwan,,China,9533,FALSE
31db7826-4dd9-447d-b1d1-a457e88702f2,cisco.com,Storage,356 Tennessee Way,Šardice,,Czech Republic,9512,TRUE
032af6dd-dd8e-4f0b-9795-f97ff095ed07,odnoklassniki.ru,Storage,7617 Helena Way,Kertasari,,Indonesia,6216,TRUE
feb3e462-e0dc-47fd-8476-974f736169cf,scribd.com,Distributor,769 Merchant Junction,Twyford,England,United Kingdom,5111,TRUE
1cb42af0-778a-4e1e-ba80-648661c6468e,nature.com,Manufacturer,46 Lien Circle,Xipingle,,China,5477,FALSE
af4bb069-9128-46cc-b908-fb1a89210b79,marketwatch.com,Retailer,0674 Oak Valley Center,Guandian,,China,6997,TRUE
1320f099-6043-4289-9ec1-6e04a5f6fe4b,biglobe.ne.jp,Distributor,98196 Hallows Crossing,Raojān,,Bangladesh,6348,FALSE
42b4345f-b71c-4221-bb1f-0824ee4b7cc3,cdc.gov,Retailer,142 Sachtjen Park,Datun,,China,6997,FALSE
b146c3e8-a241-47e4-8243-75ff321eba0a,si.edu,Manufacturer,9 Main Street,Nagqu,,China,9466,FALSE
77a50498-65dc-4496-8909-fd83eabd8523,google.com.au,Manufacturer,99242 Rigney Way,Terny,,Ukraine,8256,FALSE
88e9ff4e-640a-4ba6-9d46-380699bb1969,stumbleupon.com,Distributor,75 Maryland Avenue,Arruda dos Vinhos,Lisboa,Portugal,9029,TRUE
40e7cea5-0ee3-47bb-b8d1-2250a83ea3cb,economist.com,Manufacturer,8696 Upham Park,Jami,,Indonesia,7432,TRUE
6960c34c-0fc5-4d68-9084-cf5744001f92,addtoany.com,Retailer,30603 Di Loreto Terrace,Ujar,,Azerbaijan,8595,TRUE
26d357f7-e421-4cb8-8969-a649e1e73d0a,walmart.com,Storage,0623 Maywood Road,Catumbela,,Angola,7514,TRUE
3efa1817-1074-46dd-883a-2ec0913054ae,businessinsider.com,Manufacturer,90026 Hoffman Junction,Geji,,China,7541,TRUE
05d802c9-8561-479f-98b5-ddcb76b25c6f,tinypic.com,Retailer,6073 Sugar Road,Al ‘Āqir,,Yemen,8316,TRUE
6bf3d7e9-e53c-4cf8-8ccb-ea0a8c06ddd3,zdnet.com,Storage,0 Cardinal Lane,Oeri’u,,Indonesia,7943,TRUE
5cf10d2c-8340-4fd2-9e64-b63f5f01b3f6,sciencedaily.com,Manufacturer,231 Manley Center,Liushun,,China,6710,TRUE
842bd401-3f4e-4849-b940-a8e1f73b4dd9,redcross.org,Retailer,4550 Upham Parkway,Babakanlapang,,Indonesia,6898,TRUE
08dded15-cb25-42e2-afb2-697ea3b255e6,usatoday.com,Retailer,0 Granby Place,Sarmanovo,,Russia,5380,TRUE
7caebd98-6772-4d2f-8460-f9cbd2e93220,ask.com,Retailer,058 Farwell Lane,Cikijing,,Indonesia,8949,FALSE
2cee99a9-0a40-4bc1-a856-5963015ad387,boston.com,Storage,27580 Hollow Ridge Circle,Wyszki,,Poland,7340,FALSE
0b1d5aef-4bda-4733-9d17-9e1e0a0bd192,bizjournals.com,Retailer,8734 Dahle Crossing,Nenagh,,Ireland,6266,FALSE
000b1629-cf71-457b-9b6a-f91df316e826,mediafire.com,Storage,74 Veith Terrace,Santo Tomás,,Colombia,8213,FALSE
780b0e9e-ee19-416d-aa41-6e57231b7d4e,fastcompany.com,Distributor,242 Pond Parkway,Sogamoso,,Colombia,9430,FALSE
f397d1fb-9309-43c8-aa4b-16edb1e3221d,unc.edu,Distributor,33 Onsgard Crossing,Batudulang,,Indonesia,7282,FALSE
a4b86cfc-a6a2-49d5-921a-130b16f7462f,disqus.com,Manufacturer,86 Upham Street,Milotice,,Czech Republic,6599,TRUE
ee9be1e3-414b-47f3-9508-fae01407bb80,businesswire.com,Retailer,541 Goodland Drive,Hengshanqiao,,China,9284,FALSE
e2278708-2ac1-4ecd-98fb-c174884eac6d,addtoany.com,Storage,8077 Nancy Road,Bulawin,,Philippines,5103,FALSE
f43705e2-8bfd-4c71-8992-b52003e218f2,discovery.com,Storage,947 Commercial Terrace,Marneuli,,Georgia,6812,FALSE
7e6fea69-3871-438b-b88d-bbe4fa5637f8,marketwatch.com,Storage,628 Talmadge Junction,Looc,,Philippines,5153,TRUE
7a7fe9f3-662e-493f-99ba-e1b6fb59a35f,vimeo.com,Distributor,8 Canary Plaza,Haoraoshan,,China,9226,FALSE
54ef8376-e1a6-43b9-9f44-243da414637a,noaa.gov,Distributor,8 Blaine Center,João Alfredo,,Brazil,5588,TRUE
5a90d4eb-6de8-465e-b94b-6ea7457ae586,nba.com,Retailer,35 Esker Street,Portland,Oregon,United States,9407,TRUE
dd08196f-d04b-439c-9fb6-8f0b8233d2ef,qq.com,Distributor,15 Sutherland Place,Bandar-e Ganāveh,,Iran,8252,TRUE
05f9d53c-672d-4594-b968-307ff1c6dcea,vistaprint.com,Retailer,24 Homewood Pass,Korçë,,Albania,5694,FALSE
aca5e5ff-1d88-4887-89d6-0b12ea4a3a5d,a8.net,Retailer,532 Corben Point,Seminole,Florida,United States,8912,FALSE
56b35a72-2c1f-4211-abc8-ce37e3e081a1,youtu.be,Retailer,80 Valley Edge Road,Káto Dhiminió,,Greece,8652,TRUE
ebb35894-1fda-4b97-a446-734b02ef66e0,miibeian.gov.cn,Retailer,7819 Surrey Court,Kapyl’,,Belarus,6627,FALSE
324bfc11-2a68-4b6a-aa92-1f547fb2bf9e,youtu.be,Manufacturer,190 Wayridge Terrace,Zhanping,,China,9166,TRUE
e0c46d75-fbd1-4a01-82f1-6f3bcadea68e,de.vu,Retailer,99439 Weeping Birch Park,Guadalupe,Campeche,Mexico,8099,FALSE
91c0177f-510b-4ef0-9152-59b6eb0f952a,apple.com,Distributor,8287 Lyons Crossing,Jiuxian,,China,5040,TRUE
54e27511-9641-4610-be8b-93f00f2048de,seesaa.net,Storage,56087 Graedel Alley,Lañgub,,Philippines,9572,FALSE
93b61b4c-93a5-411f-a365-2ac8bbcf463d,cpanel.net,Storage,536 Sunnyside Alley,Setro,,Indonesia,8002,FALSE
45dcd468-3d0f-431f-8eab-74d04da3d6f0,cisco.com,Manufacturer,1460 Hudson Crossing,Qinxi,,China,5232,FALSE
ea682e88-78fb-44fb-96a4-c59440f2c9eb,4shared.com,Distributor,7727 Gale Way,Nantes,Pays de la Loire,France,5215,FALSE
81628bce-a749-4e23-8ec6-7beaa9091f77,google.nl,Manufacturer,20438 Kinsman Alley,Waśniów,,Poland,6921,FALSE
af52d7ee-c7a4-415b-b3b4-9ab642465df5,theatlantic.com,Manufacturer,952 Clyde Gallagher Way,Vareiá,,Greece,9162,TRUE
2fe69569-628c-4491-bcd0-67d2aeddecf2,booking.com,Retailer,48822 Starling Place,Rýmařov,,Czech Republic,6512,FALSE
add255ff-a4ac-4cda-8623-3b83866be698,blogger.com,Manufacturer,39138 Schurz Pass,Baleal,Leiria,Portugal,8088,FALSE
e41a5ea2-55e4-4d5a-bfb3-5aeb519dc753,e-recht24.de,Retailer,7133 Meadow Vale Parkway,Adamantina,,Brazil,8793,FALSE
a46d7599-a3d1-41fd-a5d5-b4d920231f0f,walmart.com,Storage,83 Starling Junction,Tajan,,Indonesia,5237,FALSE
51cfdf03-34e9-4f74-a927-ef71069df2c5,msn.com,Distributor,17 Stuart Lane,Shenkou,,China,7668,FALSE
04ea046a-5192-4f41-b169-123c55ec49eb,hostgator.com,Manufacturer,3628 Anderson Park,Salgar,,Colombia,9211,TRUE
eb3705b3-67b9-46a2-8e3a-b42e1f5bf9a8,reference.com,Storage,3534 Lighthouse Bay Center,Invermere,British Columbia,Canada,5629,TRUE
1723d3ef-446f-41e1-bf9a-ac4ca4af32a8,guardian.co.uk,Distributor,422 South Lane,Jiulong,,China,9877,FALSE
59ef10cf-3393-487e-aea5-7a9ecc3c2f8a,pen.io,Manufacturer,5753 Longview Street,Storozhnytsya,,Ukraine,7922,TRUE
632f9614-3f07-422b-991b-f41292bb6ac3,squarespace.com,Retailer,79 Merchant Trail,Haduohe,,China,5869,FALSE
ed74de54-5531-40cb-aaf8-fd87b69a31ef,tripadvisor.com,Distributor,18578 Anniversary Park,Sliema,,Malta,9892,TRUE
38271b0e-9b54-4fd1-ae45-684e009f797a,goo.gl,Manufacturer,1 Cambridge Point,Bagneux,Île-de-France,France,7716,TRUE
033c72cc-a9be-4f55-b677-0888ccd3059a,constantcontact.com,Storage,4 Mallory Terrace,Turrialba,,Costa Rica,5931,FALSE
05b49f22-c1d5-4ff0-95b8-6b463786dd1d,sina.com.cn,Distributor,22204 Lillian Terrace,Willemstad,,Curacao,8368,TRUE
361789ab-2333-4334-9b85-e38c65406f52,altervista.org,Distributor,369 Park Meadow Lane,Nueva Ocotepeque,,Honduras,7564,TRUE
f8fc9547-167d-4caa-8b3a-268ff64aad0b,google.ca,Distributor,75105 Pawling Plaza,Dopang,,Indonesia,9846,FALSE
1a6066aa-82d8-4483-8afd-92b3b25a0738,marriott.com,Storage,36 Westport Drive,Chengqiao,,China,7583,FALSE
252b53ee-a42e-4ecc-814b-e4567ea68749,hugedomains.com,Distributor,65 Calypso Avenue,Xiaolou,,China,8830,TRUE
984df2c6-7358-4c12-8706-e6bee3a222f0,altervista.org,Retailer,4 Jackson Crossing,Taocun,,China,5588,FALSE
ce0e1260-ffd5-49b2-952f-47cc607f728b,biblegateway.com,Storage,053 Utah Street,Naftalan,,Azerbaijan,8505,FALSE
44d43e4b-7038-4951-b69f-493d1e809066,pinterest.com,Storage,34757 Corry Parkway,Francisco I Madero,Coahuila De Zaragoza,Mexico,5544,FALSE
046b3c35-cc93-4368-be25-dff9b3327805,naver.com,Manufacturer,2243 Golden Leaf Lane,Tatarsk,,Russia,8360,FALSE
27868bda-dea4-4752-b546-953ab66674c1,ftc.gov,Retailer,974 Atwood Plaza,Vale de Vila,Viseu,Portugal,8493,FALSE
fba07f83-5ee7-4bf9-b0ec-88917df4f3ed,archive.org,Manufacturer,97644 Mallard Pass,Magallanes,,Philippines,5590,TRUE
940e1e56-0b68-4cfc-bd0b-7052b71f460d,unblog.fr,Manufacturer,45 Warrior Pass,Krajan Dua Putukrejo,,Indonesia,5410,TRUE
c195d6a3-8e76-4973-8d6b-7032b3b5fcec,narod.ru,Storage,10 Norway Maple Street,Comillas Norte,,Philippines,6969,FALSE
1407fa16-b0d2-4f6b-b3aa-92d9c3581f77,techcrunch.com,Manufacturer,9 Pepper Wood Center,Pecna,,Poland,7685,FALSE
2a180aee-1191-4366-b1e9-ad3c446a8240,fotki.com,Storage,933 Bellgrove Circle,Melissochóri,,Greece,7300,TRUE
91cfc551-533e-4d7b-93b9-1ff4dc53d3a6,weather.com,Storage,76994 Shopko Crossing,Kota Kinabalu,Sabah,Malaysia,8816,TRUE
1ccc72dd-ffe9-4da5-90db-217e1e692e67,un.org,Retailer,1 Grover Road,Huacao,,China,8130,FALSE
62d5b58e-9595-4fcb-bec6-731ce60d858a,hp.com,Manufacturer,2207 Petterle Crossing,Latacunga,,Ecuador,5424,TRUE
96cab8d3-55d2-4c1f-99fe-01d67ff36641,sfgate.com,Distributor,5 Division Crossing,Majiadu,,China,5434,TRUE
ed292240-5328-43e0-b046-56f190f6c66a,youku.com,Retailer,3484 Graedel Alley,Kalapanunggal,,Indonesia,8902,FALSE
292b0cf5-887d-4d50-a0f9-415bfded45cf,linkedin.com,Retailer,4 Glendale Street,Sātkhira,,Bangladesh,9067,TRUE
22335fb3-9c62-40b5-9455-a2b9ea33047e,thetimes.co.uk,Retailer,486 Shelley Pass,Conde,,Brazil,7517,TRUE
f580b504-5c26-4086-b1fa-ab8b8c9aec6d,auda.org.au,Storage,50251 Victoria Center,Hurghada,,Egypt,8097,FALSE
a4ed9df4-6eaa-4a2e-b66f-3c2cd68be972,google.nl,Manufacturer,36902 Briar Crest Center,Gondang,,Indonesia,8228,FALSE
342881f8-bbca-4dff-b86d-390b6dfa6461,cnet.com,Storage,08172 Manufacturers Alley,Gargaliánoi,,Greece,5482,FALSE
f097ad9b-2b48-42fe-8f1d-4e4a98bf6e8b,skype.com,Distributor,13189 Derek Avenue,Poputnaya,,Russia,5772,FALSE
64ae9ec4-afcf-4133-aa95-b4d79b07484c,nasa.gov,Manufacturer,525 Crescent Oaks Drive,Xiaogang,,China,8714,FALSE
ee44882d-0f60-46de-8c40-95123d4be156,samsung.com,Manufacturer,53886 Sundown Junction,Cárdenas,,Cuba,7401,TRUE
fe98b78d-4aa3-48af-93eb-d5f079dd58ec,cocolog-nifty.com,Manufacturer,45818 Novick Center,Plereyan,,Indonesia,6195,TRUE
b7dcaa87-ee70-4a83-b72d-c0a387ddc5f8,gravatar.com,Retailer,96171 Scofield Court,Lebak Timur,,Indonesia,5069,FALSE
26ac20e3-e2b0-42a1-ab8c-38903776c8f2,weather.com,Distributor,4367 Fair Oaks Terrace,Dërmënas,,Albania,5728,FALSE
a980b94a-9cfd-4542-bf32-da8ef5f435a6,dedecms.com,Manufacturer,89290 Crownhardt Lane,Tatebal,,Indonesia,5690,TRUE
df5be9b1-f853-4ff5-9b59-7a716bc8478f,blinklist.com,Storage,0 Golf View Point,Haduohe,,China,7331,FALSE
4c4be2ef-0c86-4252-a307-da24326f3a37,msn.com,Distributor,5 Lawn Point,Guihulñgan,,Philippines,5179,TRUE
9dec7a86-a7d0-4f4b-9da8-1b2bde4c6935,ed.gov,Distributor,957 Esker Pass,Liangshuihe,,China,8087,FALSE
ae8ecfb2-aa00-4cdf-963a-aef965d387ca,noaa.gov,Storage,5 Twin Pines Crossing,Hengpi,,China,6270,FALSE
fb1fb6df-7518-45ec-842e-4bec5d38c286,domainmarket.com,Manufacturer,910 Reinke Junction,Kesamben,,Indonesia,6706,FALSE
f0de147a-1929-4ce5-85b4-b96fc9dd1074,abc.net.au,Storage,73 Nobel Pass,Richmond,Québec,Canada,7505,FALSE
9d0011df-7ef9-40c5-a787-59f052f7c994,arizona.edu,Retailer,34846 Haas Pass,Tangwang,,China,9551,FALSE
e62064b9-4a8e-4a2d-852a-b4b3d1e3767f,constantcontact.com,Storage,412 Sage Avenue,Yokotemachi,,Japan,7393,TRUE
5c33c109-478e-4ba3-93a7-c3dd23914b17,java.com,Storage,11761 Rockefeller Lane,Huangcun,,China,6970,TRUE
67191032-cde1-4eba-a3b8-116fa229f15d,nymag.com,Distributor,15 Westridge Place,Fortaleza,,Brazil,7699,FALSE
bb6a76b5-601c-402c-8d71-d9aeed092ba4,twitpic.com,Distributor,803 Lighthouse Bay Drive,Plumtree,,Zimbabwe,5472,FALSE
005aa3d9-3585-4079-a3a2-f38df24fb9f6,sohu.com,Distributor,13 Maryland Point,Pedro Leopoldo,,Brazil,5253,FALSE
9f88dd70-2c87-43de-95b8-4b7587f8583a,bbc.co.uk,Storage,7537 Dawn Terrace,Vetluzhskiy,,Russia,9169,FALSE
bf8172f8-4fea-480f-a0d1-1105560d1e52,joomla.org,Retailer,8 Maple Court,La Habana Vieja,,Cuba,7868,TRUE
a59753b2-9b04-4029-bad9-982cde13305c,boston.com,Retailer,17807 Chinook Terrace,Ulanov,,Ukraine,5236,FALSE
e849cf08-9f3b-4b51-a266-d23731bba10a,deviantart.com,Distributor,01 Sommers Place,Nemby,,Paraguay,6557,FALSE
d0b24678-c0c4-48a9-b618-8ad2940001c8,purevolume.com,Distributor,2 Elgar Circle,Mizhirah,,Saudi Arabia,7257,TRUE
a3b58250-cf99-4579-9321-b90c9ed27362,360.cn,Distributor,02701 Waxwing Road,Karangtawar,,Indonesia,6077,FALSE
d02428ac-f757-4398-a20d-7bbb8ecd84a6,scientificamerican.com,Distributor,8 Graedel Lane,Shalkar,,Kazakhstan,5954,FALSE
961b4477-276b-47a4-83ac-b775f9738fdc,merriam-webster.com,Manufacturer,4655 Union Circle,Paris 15,Île-de-France,France,6159,TRUE
4821e046-7b1c-4a57-8de6-4ec28fce2e7e,mysql.com,Storage,33827 Kenwood Point,Floda,Västra Götaland,Sweden,5180,FALSE
7de0a817-21fb-4b84-991c-09429c5697e6,umich.edu,Retailer,95880 Anderson Street,Xuxiake,,China,8408,FALSE
b287cd4f-19fc-44ba-9ea3-746fbcd36466,arizona.edu,Distributor,4596 Pond Junction,Cihaurbeuti,,Indonesia,5201,TRUE
15b6e35c-da95-478f-8ea5-50ba269784a4,nhs.uk,Storage,5 Hayes Drive,Pagelaran,,Indonesia,6390,FALSE
19aa8d23-83be-45b3-a97a-6ca22a72b89b,rambler.ru,Manufacturer,1736 Northport Avenue,Hejiang,,China,7044,TRUE
c326f799-e585-4b7e-bfe6-869d97479a85,un.org,Distributor,67 Melvin Street,Tāngāil,,Bangladesh,8850,FALSE
fe76c014-091e-4e19-8420-12acff6ca859,cloudflare.com,Manufacturer,3103 Novick Parkway,Puerto Rico,,Colombia,7616,FALSE
fd8078a1-f4a9-412a-8a47-5fe65390382a,google.com.au,Distributor,56 Parkside Hill,Cotorra,,Colombia,6310,TRUE
0ca445f6-c652-4e42-ba28-bde508cf6f69,meetup.com,Retailer,1 Lawn Center,Bruxelles,Bruxelles-Capitale,Belgium,5764,FALSE
85b9d76e-82f3-49dc-950f-f0ceafc607e9,geocities.com,Manufacturer,209 Hanson Circle,Marsabit,,Kenya,5754,TRUE
3c05ff20-2c43-48e9-95a6-53b9763e6894,home.pl,Distributor,571 Lerdahl Court,Syzran’,,Russia,7481,TRUE
e35b0595-9e7c-4c50-a753-3f9adc3a942e,latimes.com,Manufacturer,5036 Schiller Trail,Chợ Mới,,Vietnam,9994,FALSE
0588f2ef-d5cf-461f-af8b-ba60df62a047,xing.com,Retailer,076 4th Trail,Wichita,Kansas,United States,9081,FALSE
d04203e0-436f-4c30-8582-bc83b28314ed,marriott.com,Distributor,0 Hoepker Plaza,Siukh,,Russia,7519,TRUE
bbd789e5-0acf-401c-83c5-66b7196ccd2d,sun.com,Distributor,5043 Shasta Parkway,T’aebaek,,South Korea,5664,TRUE
1177aca1-8d7b-4afb-a855-a3779bc1d460,chicagotribune.com,Distributor,999 Southridge Terrace,Marka,,Somalia,9041,FALSE
61f1765d-f482-444f-b8df-8361eb52b081,jigsy.com,Retailer,6 Eastlawn Crossing,Benito Juarez,Veracruz Llave,Mexico,9313,TRUE
b9a81f3b-e54e-43f1-8b72-d330ce9913db,jiathis.com,Manufacturer,77 Transport Lane,Walichnowy,,Poland,9026,FALSE
5411f40a-b4e3-4e90-8985-122069e6108b,blog.com,Manufacturer,87217 New Castle Terrace,Karangcombong,,Indonesia,5691,TRUE
de73b031-515a-458e-b0ab-c7045e9c3d03,yellowpages.com,Distributor,187 Kensington Junction,Tigbao,,Philippines,7537,FALSE
6497e0b8-371d-4e11-899e-c04dc04b5fc6,lycos.com,Retailer,186 Service Plaza,La Paz,,Argentina,5954,FALSE
6308e178-c7ff-4bbc-a6f6-a519fe0d17e5,wp.com,Storage,497 Canary Alley,Paço,Porto,Portugal,6557,TRUE
93c4ce78-3888-4509-80f9-ff3e86b59e11,dell.com,Storage,75011 Garrison Lane,Qiawan,,China,9891,FALSE
b5209309-313c-4bc4-865e-bcab71dd497d,tiny.cc,Manufacturer,1 Larry Trail,Wuyang,,China,6855,TRUE
4ed93d3d-eb01-4e37-8d78-04a1ca30ce19,webnode.com,Retailer,49950 Armistice Pass,Czarna Woda,,Poland,8263,FALSE
a7fcfb22-b4da-4fd6-81a8-9c6a0069babc,adobe.com,Distributor,5698 Independence Lane,Selizharovo,,Russia,8803,FALSE
ac2a3036-3183-47e8-9fb0-6a68e174b1c3,imgur.com,Retailer,787 Vermont Junction,Candelaria,,Colombia,6705,FALSE
842a4995-7a27-4819-8458-b85b476599f5,ycombinator.com,Retailer,65383 Shasta Plaza,Pabean,,Indonesia,5719,TRUE
2ab7f124-466d-4020-a2c1-266bde96eb46,geocities.com,Manufacturer,7 Doe Crossing Lane,Bukonyo,,Tanzania,6819,TRUE
ca8fd76f-7e2e-4d57-b530-dd32deeb0f6a,umich.edu,Manufacturer,5514 Parkside Parkway,Nakambala,,Zambia,7195,TRUE
78093fa6-1f16-4db2-9f93-edc24ec40804,telegraph.co.uk,Retailer,9965 Maple Wood Park,Greenville,,Liberia,6351,FALSE
7ac8e334-4f9c-4dab-bdc3-79225cadec91,bandcamp.com,Storage,9277 Hanover Road,Bajomulyo,,Indonesia,6741,FALSE
46063c97-2345-49d7-ac92-6085177742f9,webs.com,Distributor,93 Banding Parkway,Udënisht,,Albania,7697,TRUE
589edb44-fcfd-4991-9781-fbd4720bd6e5,omniture.com,Manufacturer,0650 Sutteridge Trail,Biru,,China,6939,FALSE
61221ce7-647b-40a5-b18a-ca55efc808fa,weebly.com,Distributor,1583 Hintze Terrace,Ancenis,Pays de la Loire,France,6128,TRUE
90503abc-3a69-4ae8-b85b-966677dbed16,linkedin.com,Manufacturer,662 Warner Place,Conceição da Abóboda,Lisboa,Portugal,7926,TRUE
b081b1c9-3c8c-4c31-b0da-8f59b84bf98c,ft.com,Manufacturer,43535 Fordem Pass,Turbaco,,Colombia,8321,FALSE
ed16e1cb-4872-4796-acd4-6505a279d780,boston.com,Retailer,16 Portage Pass,Lukou,,China,9222,FALSE
3143d11f-184f-459c-91b2-85665725210b,addtoany.com,Storage,817 Blackbird Lane,Governador Valadares,,Brazil,6603,FALSE
ba0dcdad-bb1c-4d71-b3b8-f0b3394ff2a6,smh.com.au,Storage,34 Elgar Point,Santa Justina,,Philippines,7847,TRUE
a855d857-542e-4e89-a5a2-b025d97a8353,scientificamerican.com,Retailer,34 Golf Point,Dama,,China,6754,FALSE
c2310bb2-0cf6-4e78-80ae-77bccee20442,nytimes.com,Manufacturer,23 Stoughton Point,Trzemeszno,,Poland,9765,TRUE
dda1f58e-f270-4280-87a4-e20a2aee3b47,youtu.be,Distributor,68 Evergreen Crossing,Lagyná,,Greece,8422,FALSE
68b5c50d-9ea3-4eae-bed8-16568c5bb7c5,dion.ne.jp,Manufacturer,6 Stuart Crossing,Yaozhuang,,China,7188,TRUE
6a227b59-5b77-4a6b-9785-205a3edc9f81,yahoo.co.jp,Distributor,374 Reindahl Plaza,Eckerö,,Aland Islands,9635,TRUE
c0934ada-53dd-4b5c-9521-b82afd9b53cf,simplemachines.org,Storage,3677 Sullivan Place,Nahrīn,,Afghanistan,9242,FALSE
ed74834a-b2e7-4b5f-a5af-9d444417eef0,reddit.com,Retailer,11178 Moose Hill,Criciúma,,Brazil,9354,FALSE
87fdfe0d-a224-4df2-9762-bcc86ccd5c0c,comcast.net,Storage,0 Mandrake Court,Zuitou,,China,9771,TRUE
c455d491-7828-4d5a-a7ac-5deb89e3c225,princeton.edu,Retailer,3528 Shasta Trail,Shangshuai,,China,5418,TRUE
902267e0-0746-4160-89cd-24390cd77129,etsy.com,Retailer,9651 Blue Bill Park Pass,Bo Kluea,,Thailand,7008,FALSE
cbde238b-2eca-4ac4-a75f-8125ff5a741e,wiley.com,Distributor,3 Warner Terrace,Oster,,Ukraine,7601,FALSE
8c976174-aa11-409c-9774-9cf8b74117c7,pagesperso-orange.fr,Retailer,8 Corry Terrace,Puamata,,Indonesia,8029,FALSE
7c340be3-7cc6-405e-b34a-aa6b7bbb7488,ox.ac.uk,Storage,78893 High Crossing Plaza,Chojnów,,Poland,8018,FALSE
e7b524e2-0459-4500-a5e1-e25fcfe210e6,tripadvisor.com,Distributor,959 Main Lane,Plavsk,,Russia,7602,TRUE
8b14f3bf-edc5-4189-9885-91fbffaefe0e,washingtonpost.com,Storage,76 Hoard Terrace,Regla,,Cuba,9075,FALSE
50b022de-32cc-4e73-8bed-f3025f7eb3e6,smugmug.com,Storage,0 Dottie Hill,Kitob,,Uzbekistan,7696,FALSE
5221edbb-7a24-43f3-94e6-058425aa9743,salon.com,Distributor,94 Talisman Place,Kose,,Estonia,6681,FALSE
9d38de2a-6622-4568-bcfc-131b8a4e92e8,goodreads.com,Retailer,9 Cody Avenue,Nancy,Lorraine,France,5257,FALSE
8d6f8693-81af-47c0-81a3-05b730f41155,sphinn.com,Storage,2 Shasta Terrace,Zemio,,Central African Republic,9980,TRUE
953371bc-c434-41b4-a454-d2a8bf7e15ea,biblegateway.com,Retailer,26 Spaight Junction,Shiojiri,,Japan,7716,TRUE
7150e8e0-ce42-4d77-b52d-9dfa6f6e691d,adobe.com,Storage,445 Warrior Lane,El Cocuy,,Colombia,7202,FALSE
1a1eb141-0135-496b-b48f-b13c5a34056d,yellowpages.com,Distributor,8035 Talmadge Junction,Daliuhao,,China,5199,TRUE
f08e2449-5124-4f05-956e-c100efffd8c3,usda.gov,Distributor,5 Dixon Pass,Linshe,,China,5025,TRUE
bb51d60a-0b3a-4784-9435-43c9b425f801,etsy.com,Manufacturer,03 Susan Point,Cheping,,China,6523,TRUE
7bb1dba2-4a98-4c49-9489-d8d6fcb69261,si.edu,Manufacturer,97 Hanover Plaza,Limoeiro do Ajuru,,Brazil,7283,FALSE
81b5705c-42ba-4e4a-95ef-9ab6c84e4e52,ihg.com,Manufacturer,88112 Bay Avenue,Shahr-e Şafā,,Afghanistan,8503,FALSE
e8ced91f-1b23-403c-b8af-dbebd20dc512,ca.gov,Retailer,1296 Becker Place,Krapyak Kidul,,Indonesia,9201,FALSE
39513992-fd1e-49d8-a268-37c49a94b54c,psu.edu,Storage,758 Mcguire Way,Mainit,,Philippines,9437,TRUE
9f8a29a0-bad4-4b62-9b23-bf3dcef6df70,themeforest.net,Storage,354 Debra Pass,Caluire-et-Cuire,Rhône-Alpes,France,5189,FALSE
4c40d50f-0e24-4d16-b627-04c6aa903d61,npr.org,Distributor,37 Village Green Plaza,Chai Badan,,Thailand,8390,TRUE
d805c820-11c1-4509-bae3-f39012b39398,boston.com,Distributor,3 Atwood Terrace,Kelodan,,Indonesia,8674,FALSE
f5a3141e-8c3a-4aac-b8be-d8fb9b7cbdd9,unesco.org,Retailer,4 Lakewood Gardens Circle,Postira,,Croatia,7757,FALSE
e7ff6d1e-1b92-4d06-b173-1bc54c7d7905,youtube.com,Distributor,84136 Logan Junction,Agen,Aquitaine,France,7436,TRUE
ec062f13-e526-49c2-b941-c742c37e4bb5,trellian.com,Distributor,322 Alpine Point,Santo António,Viseu,Portugal,6619,FALSE
a66c70da-a8eb-42f9-af42-26e5a0e14c2e,usda.gov,Manufacturer,4985 Carpenter Place,Eindhoven,Provincie Noord-Brabant,Netherlands,6044,FALSE
b0f7294c-f14f-4b60-a352-b8d4c9d73ca5,amazon.co.uk,Storage,71 Linden Circle,Xiaosong,,China,9910,FALSE
c7e6aad9-f2de-46d5-b74d-8fe4726c6409,hhs.gov,Retailer,919 Loomis Plaza,Växjö,Kronoberg,Sweden,8026,FALSE
03b6d180-4f93-4b2a-9c41-b808e1fdfc1a,goodreads.com,Distributor,0 Talmadge Drive,Tlumačov,,Czech Republic,5630,FALSE
1678a760-a681-43d6-9e9f-08cb9b71553b,mediafire.com,Retailer,3301 Birchwood Lane,Stockholm,Stockholm,Sweden,6495,TRUE
ba21ca55-51d1-4bc3-bff6-733f4d1e2d42,symantec.com,Storage,62162 Park Meadow Court,Carora,,Venezuela,5766,FALSE
2cec765f-0a30-488a-b73a-257664ae9e86,desdev.cn,Distributor,1078 Packers Junction,Yambio,,South Sudan,6071,FALSE
877addb2-0824-4f56-bc35-e4ffcd0aae2f,admin.ch,Storage,730 Michigan Center,Saint-Louis du Nord,,Haiti,8325,FALSE
9dded63c-e74a-41c9-9bc1-57a88bdc2477,europa.eu,Distributor,81038 Gale Road,Donggou,,China,9682,FALSE
61c0906a-5178-4f0e-9591-41a2cf35a1f7,reverbnation.com,Retailer,6 Farmco Drive,Igarassu,,Brazil,8601,FALSE
b38478bd-9e2f-4049-b595-a7459d8a7254,acquirethisname.com,Distributor,0 Arrowood Trail,Beselga,Viseu,Portugal,5589,FALSE
6755919b-7c17-4719-a066-333ac060e371,com.com,Storage,947 Stuart Point,Dongjiahe,,China,7215,TRUE
f3190f03-df8e-491f-ae2e-7d3cb7d25611,mlb.com,Manufacturer,59 Kipling Avenue,Stockholm,Stockholm,Sweden,6564,TRUE
3116e3ca-8afd-417d-b923-d909b6b1977d,wsj.com,Manufacturer,98524 Oak Valley Place,Nowy Tomyśl,,Poland,8603,FALSE
3ff310a7-b16a-40a1-901b-ff80dba62d88,tumblr.com,Distributor,77808 Maple Wood Drive,Oropesa,,Peru,5904,TRUE
363d5431-204e-4c08-93a7-ec71a68e4e58,pen.io,Manufacturer,0 Forest Way,Huliao,,China,9315,FALSE
8b209e2f-eda4-48cd-bb80-ed5511ec074c,wufoo.com,Manufacturer,15212 Gateway Trail,Changqiao,,China,6751,FALSE
ff11f5d7-f031-4640-9811-36b05b37721d,nba.com,Storage,65 Banding Way,Río Campo,,Equatorial Guinea,6669,FALSE
0b631e0e-3fd3-4078-8588-d1c88939f0af,studiopress.com,Retailer,760 Tennyson Hill,Nagaracinta,,Indonesia,5444,TRUE
98652498-db71-4892-b9ad-9a2be95d05aa,sphinn.com,Manufacturer,6 Homewood Hill,Piúma,,Brazil,6635,FALSE
64c680bc-09b6-4034-a5e1-d9e096d485e0,gmpg.org,Retailer,11987 Troy Hill,Puhechang,,China,8628,TRUE
1ed7018d-2e8f-4329-90be-c83e5ee63b92,hp.com,Distributor,669 Green Pass,Nihaona,,Indonesia,8296,TRUE
284b1601-31ba-4992-a3b3-7f7b090a5591,fema.gov,Retailer,277 Fallview Lane,Tieli,,China,5331,FALSE
4ce5cb18-c892-4271-ba25-3318f6d1c649,newsvine.com,Retailer,874 Dryden Junction,Pangalangan,,Indonesia,8145,FALSE
21392f8e-d864-47c3-bd69-ca8efaa0b7f5,statcounter.com,Manufacturer,1337 Talmadge Lane,Jagüey Grande,,Cuba,8895,FALSE
1a0d6bca-2954-4a3f-9e6b-239df04ba287,goo.gl,Storage,639 Mccormick Center,Arcos de Valdevez,Viana do Castelo,Portugal,9299,TRUE
c318c974-7207-4644-bbc1-cc10f5d038ad,linkedin.com,Retailer,983 Marquette Way,Diofior,,Senegal,7216,FALSE
8efbe5ef-1b17-41f8-954c-483cb4b6759c,ocn.ne.jp,Distributor,1 Towne Road,Gajiram,,Nigeria,5041,FALSE
fd8eefd6-cb68-4e8a-8452-6aa502d59ea6,geocities.jp,Storage,2 Blackbird Crossing,Hannover,Niedersachsen,Germany,8039,TRUE
a37e98a4-fe9a-4b4a-be0d-7c17f73096fd,163.com,Storage,6 Coolidge Center,Yubilyeyny,,Belarus,5732,TRUE
a918348d-3b91-4e9a-a44b-867dc9040796,ft.com,Distributor,11382 Oak Valley Drive,Skellefteå,Västerbotten,Sweden,7438,FALSE
cb0eafff-675f-4421-8e5e-7af5e8a7c599,msn.com,Distributor,5 Summit Point,Ust’-Ulagan,,Russia,8621,TRUE
25e59e6c-270e-468d-8b98-f25c44c95111,narod.ru,Storage,822 Southridge Parkway,Canoinhas,,Brazil,7457,TRUE
d12c460d-30fb-468c-aa83-ccfc70fda228,typepad.com,Storage,876 Boyd Drive,Grigiškės,,Lithuania,5004,FALSE
4d88477d-f4b8-4089-9273-55041bec5af9,imageshack.us,Manufacturer,46 Bultman Road,Hadapu Zhen,,China,9280,TRUE
874ab98b-c1c7-4c22-9d2e-b933cc67a361,nydailynews.com,Distributor,4 4th Way,Notre Dame,,Mauritius,8875,FALSE
b435cbee-3a28-45e8-9dc6-8493a72ba833,live.com,Storage,347 Charing Cross Place,Wuning,,China,7685,TRUE
0e12ef4d-1ee4-42e5-8e54-c138ef300c0b,economist.com,Distributor,45041 Continental Parkway,Al Fayyūm,,Egypt,6966,TRUE
e52d164f-7df9-45f5-b800-ba182caddcac,reverbnation.com,Storage,08 Transport Way,Sosnovyy Bor,,Russia,5673,TRUE
4e941a86-aac8-45fd-824b-61bd26e879b5,constantcontact.com,Manufacturer,6483 Butternut Court,Nanam,,North Korea,5134,TRUE
8764a890-18da-4710-8693-0458727e731e,washington.edu,Distributor,37 Shasta Point,Ciudad Ojeda,,Venezuela,5790,TRUE
e4768028-38b9-4ec2-96e4-5e5785def8ed,who.int,Retailer,4 Arkansas Pass,Kebunan,,Indonesia,7661,FALSE
662a22c5-faec-4e1d-9fb6-befbe134b785,ycombinator.com,Retailer,90 Moland Lane,Pedra,Viana do Castelo,Portugal,7536,FALSE
509e6daa-6896-4765-88a1-ab820fc17409,istockphoto.com,Storage,71213 Hayes Junction,Kademangan,,Indonesia,5094,FALSE
7f3555a5-60b5-483e-a399-ae0e4a1bb916,people.com.cn,Retailer,743 Scott Pass,Nueva Gorgona,,Panama,9849,TRUE
2cd32e68-a766-4e12-9cac-098e27d7faf1,whitehouse.gov,Retailer,4 Talmadge Way,Manalu,,Indonesia,9919,FALSE
75e91637-632f-41f5-a0c1-8eb6887564b6,businesswire.com,Manufacturer,03384 Merchant Parkway,Břasy,,Czech Republic,7350,TRUE
a4872171-fdbf-492a-90fa-dcbc97765b7d,ifeng.com,Storage,04787 Del Mar Street,Suodenniemi,,Finland,7754,FALSE
09a95898-99e9-4381-881e-a1639c66e882,infoseek.co.jp,Distributor,0653 Nova Place,Orange,Provence-Alpes-Côte d'Azur,France,5135,FALSE
975faa3d-3299-4dcd-bfcc-ff5423052fe7,ebay.com,Manufacturer,5 Wayridge Hill,Ban Phaeo,,Thailand,9110,FALSE
d9ee0cb7-61ce-44d0-8b5e-998951c5a0d3,slashdot.org,Manufacturer,0 Shasta Street,Sanom,,Thailand,8255,TRUE
c7b8f816-aafe-4888-a51e-1c5206b22b98,loc.gov,Retailer,37 Oakridge Place,Vazhiny,,Russia,5031,TRUE
35964141-4a95-4882-862e-20ee379d0428,wix.com,Manufacturer,57 Carberry Junction,Courbevoie,Île-de-France,France,5431,TRUE
47fb69ba-c67b-4dfc-b87d-7b8d34fabe97,constantcontact.com,Manufacturer,68 Talmadge Parkway,Norton,,Zimbabwe,6971,FALSE
fbbb08c1-60b2-4390-8c37-f558b72c2e8c,homestead.com,Retailer,9 Muir Alley,Claver,,Philippines,6019,TRUE
ae548600-7dff-405f-a642-3bf05a344114,twitpic.com,Manufacturer,91 Huxley Court,Oslo,Oslo,Norway,7743,TRUE
2154eeca-df86-4f24-a897-907b5df7ab1d,nyu.edu,Storage,502 Victoria Lane,Karangboyo,,Indonesia,7270,TRUE
f27988d6-7e56-4fcf-a17c-17d0dff5f114,icio.us,Manufacturer,5188 Tomscot Court,Pujilí,,Ecuador,6810,TRUE
9ef73cc2-4356-4823-9c02-24ef0d022910,netvibes.com,Distributor,135 Eastlawn Place,Notre-Dame-de-l'Île-Perrot,Québec,Canada,6166,FALSE
3f5c99eb-26e0-43a8-bd1d-d843948fc481,epa.gov,Distributor,9426 Hoepker Terrace,Sobreira,Viana do Castelo,Portugal,9703,FALSE
ae6c9423-7ce7-4381-b3ee-6a1a98b4020b,sogou.com,Manufacturer,5260 Hintze Drive,Nanmu,,China,6039,TRUE
0ec69260-149f-449e-8e83-47f252a3075d,exblog.jp,Storage,469 Dunning Road,Valera,,Venezuela,8378,FALSE
31f28a89-6fc1-4aa8-afab-8aeafb5b2f09,godaddy.com,Retailer,13 Erie Parkway,Weton,,Indonesia,8907,TRUE
97897a6c-e70c-4bee-801e-f66918bd8eb7,disqus.com,Manufacturer,07 Pierstorff Lane,Camangcamang,,Philippines,6351,FALSE
f10340c9-9b7f-4381-a3aa-9112758ae1b9,histats.com,Manufacturer,0 Waxwing Center,Melaka,Melaka,Malaysia,5680,FALSE
239711c2-640f-4dc4-9a33-4bcd5657597c,china.com.cn,Storage,4312 Hansons Street,San Martín,,Colombia,8040,FALSE
bbc69e82-6e27-41d5-9981-301fc954f5b6,1und1.de,Retailer,26 Clemons Junction,Juan N Alvarez,Guerrero,Mexico,5398,TRUE
6a71c52f-907a-4cef-b73c-560bf965e710,gov.uk,Manufacturer,58325 Merry Junction,Xiasi,,China,7325,FALSE
fe630ea1-02ae-47d1-9e6b-3f0ddbf7aaf2,cbc.ca,Manufacturer,8043 Morningstar Terrace,La Broquerie,Manitoba,Canada,7368,TRUE
e5a483a4-e51f-43c6-a2e5-e262389dc7df,hhs.gov,Manufacturer,8490 Elka Street,Pangkalan Kasai,,Indonesia,6155,TRUE
115df164-921c-4c90-9e1b-e78f342dceb4,webeden.co.uk,Distributor,262 Tennyson Park,Novais,Braga,Portugal,6727,FALSE
31eb67a7-dd86-4cf3-9bf4-9e418a954579,eepurl.com,Distributor,444 Dryden Circle,Posadas,,Argentina,9978,TRUE
e0432eed-8019-42b0-88aa-41f105c16200,amazon.co.jp,Manufacturer,1 John Wall Alley,Wolong,,China,5714,TRUE
233bdf6f-a88e-476b-bc56-7454af4e8b60,jigsy.com,Manufacturer,5344 Rowland Street,Eksjö,Jönköping,Sweden,6107,TRUE
f9fc1819-de80-42e9-a3ba-c08d263b4e39,ca.gov,Retailer,61122 Debs Parkway,Mosteiro,Viseu,Portugal,8743,TRUE
0e5e26d7-587e-43a4-abba-667bbb982fa2,cbsnews.com,Retailer,54528 Tennessee Pass,Finspång,Östergötland,Sweden,7866,TRUE
df0818cc-abbd-4fe1-9295-f306f4a697a3,noaa.gov,Retailer,02 Petterle Plaza,Kašperské Hory,,Czech Republic,7391,FALSE
996e9f76-e307-4ded-afa4-44059cf43935,blogspot.com,Retailer,58 Drewry Alley,Jagodnjak,,Croatia,8772,TRUE
89fe3d9f-4e2d-467a-aca0-73c10e89b324,go.com,Distributor,8 Mallory Alley,Novozavedennoye,,Russia,6277,FALSE
79f9479b-7385-40ff-a435-ff6407cce22b,163.com,Distributor,05018 Melvin Plaza,Mukun,,Indonesia,5671,FALSE
ea29e5f1-4294-49bf-9bc3-b679b715c218,usatoday.com,Distributor,081 Northwestern Point,Daxin,,China,6108,FALSE
b8b915f3-6ea2-4a9d-ad8c-7c9e2538b4a8,last.fm,Distributor,11 Bay Place,Golden,British Columbia,Canada,6232,FALSE
4fce515b-d2f3-447c-8cfb-c6356288228b,cdbaby.com,Distributor,70 Stuart Hill,Conel,,Philippines,5735,FALSE
d5b46394-1fed-4c10-b88b-b5e246ab617d,ucla.edu,Distributor,3 Russell Way,Tewulike,,China,9336,TRUE
70217000-446a-4605-a5af-9dc84e7dcabf,pinterest.com,Distributor,51964 Sullivan Lane,Laiya,,Philippines,7526,FALSE
205c5740-63ae-4524-b5a1-824fe877086b,foxnews.com,Storage,469 Vera Park,Saint-Denis,Île-de-France,France,9137,TRUE
3e1a0d76-eb42-4223-a894-f8e7d838073e,slate.com,Retailer,793 Claremont Court,Nam Som,,Thailand,6418,FALSE
6c8071c8-6548-4d85-99f3-1a22a1c07dc9,webeden.co.uk,Manufacturer,34265 Scofield Road,Primero de Mayo,Veracruz Llave,Mexico,9850,TRUE
b01d49ef-7275-4e8b-bf82-d4a7acbb6040,123-reg.co.uk,Storage,641 Anhalt Court,Santa Fe,,Philippines,5902,FALSE
cfdb62fb-6023-47ed-af6e-e675147567af,answers.com,Storage,25 Dapin Plaza,Novi Travnik,,Bosnia and Herzegovina,5205,FALSE
a23e7d42-db8d-4321-aa51-37aa805de58a,amazon.co.uk,Storage,6395 Loomis Court,Paris 15,Île-de-France,France,9877,FALSE
5905a829-f22f-431a-816f-5ff57733a76e,studiopress.com,Retailer,45470 Pine View Alley,Pom Prap Sattru Phai,,Thailand,5585,FALSE
4c09c6d3-4d60-4f0d-a3dd-de50aec518b6,deviantart.com,Retailer,15429 Mosinee Crossing,Pasrukrajan Satu,,Indonesia,8514,FALSE
626e62fc-9f83-4848-a81b-84ee3f72eef3,netvibes.com,Distributor,06843 Randy Hill,Memphis,Tennessee,United States,7075,FALSE
5bbfb9bf-94bf-4181-acf9-412c9ef07439,blogtalkradio.com,Manufacturer,3 School Circle,Bijeli,,Indonesia,8617,FALSE
328c24cc-c0d7-4816-91c9-14f0e6f65631,globo.com,Distributor,1 John Wall Trail,Nakano,,Japan,9284,TRUE
5d196c1a-4108-41fd-beac-7e5c48861385,qq.com,Storage,35880 Truax Court,Yantal’,,Russia,8434,TRUE
90a8a0cf-fff7-4094-8d36-4a96e5ed179b,adobe.com,Distributor,12386 Eagan Road,Tetebatu,,Indonesia,7191,TRUE
8e863914-6776-46aa-ba5d-3a3d70e7c137,naver.com,Retailer,317 Lerdahl Way,Shouzhan,,China,5633,FALSE
6f819a7d-8c14-46e3-8efb-402be1aaae4f,diigo.com,Storage,5420 Park Meadow Place,Beauvais,Picardie,France,6649,FALSE
832e0e0a-bb75-4b47-bcba-5b19ac247e7e,rediff.com,Storage,432 Talisman Hill,Azilal,,Morocco,9629,FALSE
71118b40-919c-4252-8937-b7ff6f9d6267,slideshare.net,Storage,79808 Vahlen Court,Bangassou,,Central African Republic,6100,TRUE
8c1ffc4f-b78e-4a03-a658-4afe8f8465b8,salon.com,Manufacturer,13 Express Way,Zoumaling,,China,6874,TRUE
e6052576-f9c0-4538-999a-66b5fbf9fb90,miibeian.gov.cn,Distributor,561 Saint Paul Place,Pilcaniyeu,,Argentina,6981,FALSE
71e5d48d-457b-49c7-b995-1a1673286359,lycos.com,Retailer,2424 Eastlawn Terrace,Kamālia,,Pakistan,7162,TRUE
e3e8afef-9213-438e-a42c-49e519c57dc3,bloomberg.com,Retailer,6 Ryan Court,Xiaoya,,China,5856,FALSE
16a17b8a-39c7-4e98-8884-de5eafccb438,ftc.gov,Manufacturer,855 Buhler Parkway,Lorena,,Brazil,7402,FALSE
a052c37a-2740-4711-9a26-3d367b6f72f7,sun.com,Retailer,9 Corscot Junction,Lučko,,Croatia,6964,FALSE
83c20bfe-4e4d-42d4-88f1-8af25641595a,dot.gov,Distributor,3708 Crowley Hill,Kombissiri,,Burkina Faso,7168,FALSE
72102071-180b-4b68-9b16-6713669581fd,printfriendly.com,Distributor,5326 Melvin Avenue,Newala Kisimani,,Tanzania,8340,TRUE
4cad4f29-e2ba-4c65-bda7-5780246222a2,opera.com,Storage,665 Birchwood Way,Tibillo,,Peru,8314,FALSE
4df6558d-0974-4874-947d-2e16a649822f,ycombinator.com,Distributor,7877 Morning Center,São Marcos,,Brazil,8219,FALSE
f8032083-4f28-49f8-98a1-23a79521f844,google.de,Retailer,94772 Graedel Pass,Huamu,,China,8942,FALSE
f0713304-6cb2-40c7-8933-48ab90376bd6,statcounter.com,Storage,2268 Sommers Alley,Veshnyaki,,Russia,8468,TRUE
73e324e3-a9ad-4a07-a884-5ffbe5e8f427,usda.gov,Retailer,94793 Rockefeller Court,Colmeal,Coimbra,Portugal,5209,FALSE
7c6aabb3-ba3e-420c-bcda-598bd6b54ce9,oakley.com,Manufacturer,6736 6th Way,Cibenda,,Indonesia,7407,TRUE
2fb22793-3bb5-45a5-afb6-fa6213ff8df1,wikispaces.com,Distributor,577 Mockingbird Junction,Matanzas,,Cuba,5161,TRUE
2bf1c8b7-f66f-4f90-a19f-71c9c162593d,woothemes.com,Storage,77 Anzinger Center,Metsamor,,Armenia,6431,FALSE
3b8d35c8-f85e-4f44-b431-4b8725bc684e,bluehost.com,Retailer,75439 Summit Avenue,Xinpo,,China,8567,FALSE
c384dccd-012d-41af-abe3-68a3aa858796,example.com,Distributor,76130 Dottie Drive,Dallas,Texas,United States,5802,TRUE
9abbc4fc-5344-42dd-9b53-ca4738eb5d83,parallels.com,Retailer,46 8th Plaza,Muting,,Indonesia,7937,TRUE
4e1f6adb-7812-4620-a792-d7a0d7243505,slate.com,Storage,7601 Chinook Parkway,Ljungbyholm,Kalmar,Sweden,9235,FALSE
a926495b-7d8a-4e66-a03a-aeab20d6bb7d,delicious.com,Storage,24 Oxford Plaza,Kaberamaido,,Uganda,5769,FALSE
2ae9e400-ad3b-48de-aefb-ca9156953a7d,flavors.me,Retailer,51324 Artisan Terrace,Litian,,China,6580,FALSE
44364830-6e7d-4869-8b2b-8165d045e539,netlog.com,Retailer,762 Portage Parkway,Medina Estates,,Ghana,7710,TRUE
6713f288-9f2d-4d57-b939-4477738f0177,t.co,Storage,94173 Donald Junction,Bulog,,Philippines,7234,TRUE
1254b84f-315d-4129-8e23-261f48bcf910,blog.com,Manufacturer,6238 Burrows Point,Magarao,,Philippines,8005,FALSE
c4f6ba78-2abf-4783-bb6a-86692bbc2428,un.org,Distributor,80 American Avenue,Tambaksumur,,Indonesia,5001,FALSE
f08d4b3c-650f-4e9e-857e-8d1184cb9cc5,earthlink.net,Manufacturer,591 Rockefeller Parkway,Jiulong,,China,6102,FALSE
91af22b4-fc40-44e0-933c-36df4efb3152,dedecms.com,Retailer,415 Hagan Park,Fayaoué,,New Caledonia,5689,FALSE
3a48b670-d499-46be-8dc1-168981a7ec1b,goo.gl,Retailer,45 Pennsylvania Parkway,Mīrpur Sakro,,Pakistan,9920,FALSE
851502b9-b750-4aed-a373-46374b82a2c5,prnewswire.com,Distributor,82522 Annamark Terrace,Yongfeng,,China,7704,TRUE
4daaafaf-7a48-4664-b25d-fc1aef446b20,hugedomains.com,Retailer,23 1st Way,Middleton,Nova Scotia,Canada,8586,TRUE
5637ae82-9fa2-452a-981a-bc6b97c08968,uiuc.edu,Storage,42655 Homewood Park,Žihle,,Czech Republic,8953,TRUE
4c6844e8-a321-4a81-b6cf-bb1d8c2672d5,columbia.edu,Storage,4782 Carey Center,Keli,,China,6351,TRUE
0e8152f4-042d-4cc4-85c8-8dfe3a6e739f,accuweather.com,Retailer,29680 Forest Dale Center,Sogod,,Philippines,5639,FALSE
6c32e253-ed3a-4bf2-8742-d984b97c6b17,independent.co.uk,Retailer,0465 Lawn Trail,Färjestaden,Kalmar,Sweden,7467,TRUE
b3469358-009f-4a6d-aa60-a1b024d5ce88,slate.com,Storage,5622 Granby Court,Karlskrona,Blekinge,Sweden,5954,FALSE
97d2acde-fc77-4cab-9b89-7e7136cb99f9,usnews.com,Distributor,14 Elka Drive,Néa Karváli,,Greece,7412,TRUE
6c410c09-f013-474f-9da5-c4dd1865c093,unicef.org,Retailer,00 Cottonwood Drive,Bengtsfors,Västra Götaland,Sweden,7175,TRUE
cb79b437-e6fc-4533-b001-b66789a9e8e8,feedburner.com,Retailer,3 Anniversary Pass,Bergen,Hordaland,Norway,9269,TRUE
098502dc-0fa5-412a-a028-e3f9e84efa54,plala.or.jp,Storage,0940 Russell Crossing,Rossosh’,,Russia,5203,TRUE
730b6d46-ad5b-43f7-b87d-9645a89eaf78,blogtalkradio.com,Retailer,82 Lindbergh Street,Weekaka,,Indonesia,9241,TRUE
2555dd2a-ba67-4b03-a338-28826987c77c,edublogs.org,Retailer,8697 Dawn Way,Kristiansand S,Vest-Agder,Norway,6778,FALSE
cbdd1d1f-37b6-45b3-81af-f6201b835e31,nytimes.com,Distributor,0 Carey Trail,Biała Piska,,Poland,7083,TRUE
5f51cd64-abad-4fd0-863a-46d64f47b2c5,hibu.com,Retailer,275 Kensington Alley,Néa Éfesos,,Greece,6974,FALSE
a0042b01-2f52-476a-a724-f7fdbf5812d1,123-reg.co.uk,Distributor,31 Lakewood Gardens Place,Dongshan,,China,9805,FALSE
ffd08748-e5fd-46fb-8f7e-e85ac09ed29a,alexa.com,Manufacturer,019 Donald Court,Horta,Aveiro,Portugal,7527,FALSE
0c7aaaaf-c436-412e-9e99-d0d3b93a3958,twitpic.com,Storage,622 Michigan Hill,Qingxi,,China,5450,TRUE
904a4c6a-1bdd-4474-b80c-0c84115b7b9d,github.com,Distributor,1 Dayton Drive,Halden,Ostfold,Norway,5717,TRUE
5fcf384a-8ca7-4b99-896c-d096a5406df0,newsvine.com,Manufacturer,714 Farwell Place,Xiasi,,China,8920,TRUE
03bba8ae-ca91-4354-9920-96af329108d9,cdc.gov,Manufacturer,93418 Pepper Wood Circle,Kalkal Barat,,Indonesia,9288,FALSE
db69b75b-7a81-4ce1-aa71-635f9a7f6ef4,mtv.com,Distributor,32791 Fairfield Junction,Fovissste,Puebla,Mexico,5647,TRUE
080f5f28-8090-4b69-a0b9-a8b60607ef03,alexa.com,Distributor,205 Nova Center,Jember,,Indonesia,8651,FALSE
2f1779b0-9815-45ae-a1b1-cb06f33d8099,artisteer.com,Storage,85530 American Lane,Tamisan,,Philippines,7576,FALSE
90e5fcf8-5180-4a96-931d-6b5045518687,fc2.com,Manufacturer,0 Nova Lane,Nova Lima,,Brazil,7282,FALSE
4e19c5ee-530f-4c3b-ab91-32faa074c16c,comsenz.com,Distributor,9425 Hooker Hill,San Andros,,Bahamas,6980,TRUE
5b0deb82-e4bd-4247-a9dc-4ee3a8b0820d,google.cn,Manufacturer,43 Corscot Pass,Getengan,,Indonesia,7401,TRUE
f7eef8ef-3bb2-4712-bd1e-7b30c6fe98f8,artisteer.com,Retailer,0158 Lunder Alley,Zvenyhorodka,,Ukraine,5943,FALSE
e37a3d84-43ec-4609-b8fd-21fb86c78df6,jiathis.com,Storage,3356 Blue Bill Park Parkway,Gavarr,,Armenia,8967,FALSE
f4f090ba-2389-45b2-a1dc-d881ec0c35a7,fda.gov,Storage,63669 Ilene Lane,Jianling,,China,8338,FALSE
42fda065-b6bc-440c-9b64-172135f358a2,amazon.com,Distributor,4 Browning Plaza,Jankovec,,Macedonia,9211,TRUE
6cc6580c-a9e5-4886-b125-3353de3e9bc6,pagesperso-orange.fr,Distributor,96061 Fordem Plaza,Sedlčany,,Czech Republic,8992,FALSE
a521dfd7-369b-44f8-93aa-73e32b824caa,nytimes.com,Manufacturer,2 Main Avenue,Napoles,,Philippines,8043,FALSE
74907ae5-9756-471d-9c6d-d147b8b5bf90,cornell.edu,Distributor,8 Waubesa Crossing,Camaquã,,Brazil,6082,TRUE
c98c556a-7c17-4481-b7b2-6b42ee03c420,meetup.com,Distributor,1 Larry Place,Kebonagung,,Indonesia,8310,FALSE
b2e1513e-8a26-4fea-b7ec-758090ca0e69,hostgator.com,Retailer,2377 Forster Place,Bago City,,Philippines,8632,FALSE
095d41f0-52bc-4e7c-ae06-8ff3540a6ec0,adobe.com,Retailer,9504 Sugar Street,Ljubno ob Savinji,,Slovenia,9745,TRUE
5dd100f1-3598-4fad-a716-ecb53508f070,ifeng.com,Retailer,75 Dawn Hill,Wat Sing,,Thailand,9251,TRUE
bc9c64fb-a462-455d-bd16-8c74b1ea4963,home.pl,Manufacturer,96983 Springview Place,Dibba Al-Fujairah,,United Arab Emirates,8124,FALSE
f8ce3bb1-38e6-42c5-a824-3651ab2f0310,mashable.com,Storage,7 Rusk Street,Iwade,,Japan,9005,FALSE
39f33456-8a6e-4cad-aa1d-c79d3654d86e,freewebs.com,Retailer,72727 Moose Plaza,Bangunharja,,Indonesia,7691,FALSE
8a48efab-ca68-42ef-be4b-ad881695d9b3,163.com,Distributor,1748 Lawn Court,Tangping,,China,9716,TRUE
d9f2c832-7d03-48d2-8640-9349f39b23ce,biblegateway.com,Retailer,523 Blackbird Hill,Krajan Curahcotok,,Indonesia,6369,TRUE
e8d3a0c8-fde1-4080-9297-e8cedfd3fa74,sphinn.com,Manufacturer,9001 Kenwood Crossing,Onzaga,,Colombia,6827,FALSE
0ab6e1b2-8979-4093-9831-657bbadbd5b7,state.tx.us,Storage,572 Norway Maple Alley,Meilin,,China,7027,FALSE
094306a7-bae3-4568-bee9-48719cf6b794,flavors.me,Retailer,47 Mariners Cove Crossing,Milano,Lombardia,Italy,8336,TRUE
06985c45-a48b-449a-87b5-4c172952ec47,behance.net,Retailer,74089 Bartillon Terrace,Aozai,,China,8454,TRUE
d02fee03-7d9f-4f5f-a561-e0c470bdb52b,people.com.cn,Manufacturer,09 Golf Circle,Aldeia de Juzo,Lisboa,Portugal,7127,FALSE
1099c2e3-9e2f-453b-acaf-efcf390142ab,gmpg.org,Retailer,3 Gulseth Way,Dzaoudzi,,Mayotte,8212,FALSE
ed1fc609-9dca-4f92-af98-ec6022cbcbeb,tripod.com,Distributor,169 Hoffman Court,Vällingby,Stockholm,Sweden,7432,TRUE
248314d0-2b6f-4c11-816b-52c340c6c7dc,nps.gov,Distributor,7040 Stang Alley,Ya‘bad,,Palestinian Territory,8903,TRUE
d897e6fc-5e68-462c-903c-17cb0ddc9fa1,chicagotribune.com,Storage,850 Victoria Junction,Qila Abdullāh,,Pakistan,8645,FALSE
c68c3f25-5862-4c15-b885-277557dfeb58,google.ru,Retailer,17 Elmside Parkway,Melekyne,,Ukraine,9373,FALSE
a68093d9-703f-4b99-ae78-0fa9113dce90,ocn.ne.jp,Retailer,06 Fuller Crossing,Kagay,,Philippines,8555,TRUE
1b94261d-ed9e-4b19-9190-a176a9405bdc,imgur.com,Manufacturer,08713 Holmberg Park,Levallois-Perret,Île-de-France,France,5416,FALSE
a0115378-53d2-418d-9484-30d4065b6cc5,ehow.com,Storage,2516 Bay Pass,Sumbergayam,,Indonesia,9176,FALSE
cba1b099-1e1a-47dc-a7fc-eb89bfda1850,skype.com,Storage,648 Westerfield Circle,Meneou,,Cyprus,8690,FALSE
6321e541-7a25-414c-b78a-21c3f5f51417,unicef.org,Storage,9029 Pawling Pass,Balung,,Indonesia,6621,FALSE
aca0eec7-8fca-4234-b4a7-64d9ce994f80,tripod.com,Distributor,1 Green Ridge Alley,Yongshan,,China,9144,FALSE
aae14ce9-ddb1-4325-b3d4-d4509c90031f,elpais.com,Retailer,1004 Riverside Trail,Berlin,Berlin,Germany,9735,TRUE
26e6af1b-4f38-44af-9893-3e32c1cd0df3,uiuc.edu,Manufacturer,89261 Meadow Ridge Court,Deauville,Basse-Normandie,France,7781,TRUE
d5564fcd-6274-4dfb-a1bf-b6f613c8542c,marketwatch.com,Retailer,51 Reinke Circle,La Paz,Oaxaca,Mexico,5204,FALSE
c3b5f8bf-3921-4a82-9991-9dff20e89294,flickr.com,Storage,31573 Sutherland Parkway,Salinggara,,Indonesia,6671,TRUE
cea111ae-4deb-4e90-9234-1f71cf06ea51,typepad.com,Distributor,9036 Southridge Way,Huangsangkou,,China,5143,FALSE
f71206bb-d636-4ca8-908f-ce77a46d0a2c,bloomberg.com,Storage,804 Annamark Road,Kungälv,Västra Götaland,Sweden,7488,FALSE
f841a854-04f9-4538-9445-0097340376f0,slashdot.org,Distributor,1091 Thierer Circle,Shelabolikha,,Russia,5016,FALSE
817e6d1f-a627-4a3b-8eae-4ac42dcbe196,i2i.jp,Distributor,59 Namekagon Terrace,Souto do Meio,Leiria,Portugal,7173,TRUE
0c0e31b3-7351-4355-99c5-65f8665c4916,hostgator.com,Retailer,0 1st Place,Tangdong,,China,5464,FALSE
61207928-ec10-48c7-b6db-482fc11b609b,jigsy.com,Retailer,44009 Del Mar Circle,Himeville,,South Africa,9885,TRUE
1683014f-e8f8-4821-bae3-122b7d483096,cdc.gov,Distributor,5 3rd Terrace,Mgandu,,Tanzania,7670,FALSE
7f489bbb-e236-4d2b-80fe-8ae5dffbf480,ocn.ne.jp,Manufacturer,2 Loftsgordon Avenue,Bamencheng,,China,6142,TRUE
45d8e2a9-67dd-4824-84ec-bacd90c6536d,phpbb.com,Distributor,65312 Starling Avenue,Ojos de Agua,,Honduras,8335,FALSE
226e57d9-5ac9-4431-823b-b6433dbd6de8,yandex.ru,Storage,6 Northridge Plaza,Bibirevo,,Russia,8521,TRUE
fb155c74-e5bb-45c4-bf2f-8b6bfcbb6eab,yelp.com,Manufacturer,7 Surrey Parkway,Okunoya,,Japan,5359,FALSE
069fc15b-ac2b-475a-b540-6f6e8013834a,github.com,Retailer,17 Sunnyside Road,Turrialba,,Costa Rica,6155,FALSE
d8025d61-9a9f-4595-97f5-973ea4c07e4c,epa.gov,Distributor,72 Artisan Road,Krásná Hora nad Vltavou,,Czech Republic,5137,FALSE
cf07fe61-0db6-477e-8b49-754b6477d825,gizmodo.com,Retailer,6 Buhler Crossing,San Juan Ermita,,Guatemala,7024,FALSE
52ba3d02-8789-4047-bd2a-dc4be41495f0,webnode.com,Storage,9252 Briar Crest Trail,Klutuk,,Indonesia,8564,FALSE
ab2942c2-49fb-4f39-81d5-a0d141d314a7,google.it,Manufacturer,13661 Golden Leaf Trail,Xiahong,,China,6845,TRUE
0c4dad84-f210-4ba5-b19e-bac14e447ebd,nhs.uk,Manufacturer,8201 Jana Terrace,Vuka,,Croatia,7016,FALSE
8a0d7108-952b-431a-8716-29bb2fb11038,spiegel.de,Storage,4 Northland Point,Berdyans’k,,Ukraine,8281,TRUE
c1c26ad1-5fd5-4e01-8ea6-4b0f99cb971c,smh.com.au,Distributor,11 Sundown Crossing,Elista,,Russia,7140,FALSE
19d5bca9-5c7f-4aeb-959c-c06673176bd1,businesswire.com,Storage,5827 Steensland Alley,Rizári,,Greece,9908,FALSE
255938ff-0ba6-47d0-8b5f-d8ceaf6f16ee,mediafire.com,Distributor,90891 Gale Court,Amsterdam Nieuw West,Provincie Noord-Holland,Netherlands,5102,TRUE
30484e5a-3eeb-408a-812c-29b093767900,mayoclinic.com,Storage,0659 Debra Pass,Thaon-les-Vosges,Lorraine,France,6598,TRUE
4ad6cba6-8f53-4b46-91cd-b3762aa1798e,amazon.com,Retailer,79 Butterfield Court,Venado Tuerto,,Argentina,9512,TRUE
ac2dc30d-6050-49f5-8bad-16abe7af0190,blogtalkradio.com,Manufacturer,0 Ryan Court,Macieira de Rates,Braga,Portugal,5108,FALSE
276fe008-3d0c-4b87-980c-166de73b2201,list-manage.com,Manufacturer,84590 7th Circle,Wujing,,China,7360,TRUE
e6baae57-7f31-476d-81ed-56bd22c91821,paginegialle.it,Distributor,942 Barnett Way,Saryg-Sep,,Russia,9712,TRUE
b2e63d8e-b9e2-4562-9111-87b3d57960c0,mlb.com,Manufacturer,39794 Blue Bill Park Way,Bāgh-e Maīdān,,Afghanistan,6817,TRUE
6f78d154-359e-49e0-8d62-679f6897d106,indiatimes.com,Distributor,2 Cottonwood Hill,Arroyo Naranjo,,Cuba,6903,FALSE
ab3df37d-da3a-416a-a6dd-770306542fc0,gnu.org,Storage,87 Lakeland Place,Kérkyra,,Greece,7954,TRUE
2bcf4be7-ad4a-4b44-8021-0782adb660c1,cnbc.com,Manufacturer,3 Oak Valley Way,Saint-Avertin,Centre,France,9143,FALSE
a72f50a6-3381-4376-ba5f-81397f922f3f,mit.edu,Storage,85 Elka Circle,Hoima,,Uganda,8601,TRUE
7c11ca0c-65ae-4539-9bcf-952b91f74979,amazonaws.com,Manufacturer,5 Marquette Court,Gostagayevskaya,,Russia,6643,TRUE
1f6751d8-32bf-4c14-9f10-77bf30f7d7a4,bluehost.com,Distributor,9 Loomis Center,Kongjiang,,China,7783,TRUE
7ab6b864-f0c3-4765-bdc0-7cedad32e36a,mtv.com,Retailer,599 Bellgrove Parkway,Horodyshche,,Ukraine,7603,FALSE
b76916d6-a706-4901-bae9-0329f9e9c9f4,blinklist.com,Storage,723 Oriole Place,Tajinan,,Indonesia,6332,FALSE
5ee17602-801e-40e0-9da4-25c1aadb0667,alexa.com,Retailer,3769 Algoma Trail,Pittsburgh,Pennsylvania,United States,9214,TRUE
ed89f180-7688-4a99-aad8-f5dff735a961,zimbio.com,Storage,954 Mallard Place,Maganha,Porto,Portugal,6464,FALSE
68a81a00-0d75-45c5-b66d-28809dfdf6f6,sohu.com,Manufacturer,7 Saint Paul Circle,Bojadła,,Poland,7712,FALSE
083c33cd-13dd-43c8-a4f8-f87ca7d0bec9,symantec.com,Manufacturer,7995 Maywood Court,Anaco,,Venezuela,8164,TRUE
9605dae0-8507-4f91-9912-8b696f793828,ibm.com,Manufacturer,56784 Claremont Lane,Fonadhoo,,Maldives,6787,TRUE
17306f92-6a0f-4e92-aa93-f05b917bea5e,prnewswire.com,Retailer,813 High Crossing Center,Longtian,,China,8129,FALSE
8ecfb503-c89e-4eff-8018-31a14e642647,woothemes.com,Retailer,67 Gateway Court,Várzea Paulista,,Brazil,8406,FALSE
68dc83df-73eb-44aa-899c-1aecefd9e8c4,msu.edu,Retailer,583 5th Court,Chãos,Viseu,Portugal,9169,FALSE
87bdc180-6df7-4356-bdb5-892312ff29d5,etsy.com,Distributor,32 Bluestem Street,Pignon,,Haiti,9147,TRUE
43212afb-44fb-46c0-9579-8bcf7ca2286c,hp.com,Retailer,6 Tennessee Road,Shuitianhe,,China,7103,TRUE
01e611a9-744d-4748-8eb3-342fdf654c34,i2i.jp,Manufacturer,763 Little Fleur Circle,Rezé,Pays de la Loire,France,7093,TRUE
0a34824f-0610-427a-a5b6-bc25956a1149,nsw.gov.au,Storage,72194 Corben Parkway,Uji,,Japan,9687,TRUE
8243a0f3-3222-4f38-b9e9-76a9aafd8b24,eventbrite.com,Distributor,40 Hintze Plaza,Faaone,,French Polynesia,9760,FALSE
5a473f78-7b43-4ce5-9c8b-d1c5c91874bd,time.com,Distributor,9 Summer Ridge Circle,Zwolle,Provincie Overijssel,Netherlands,7157,FALSE
b4659e19-3df9-4af5-89a6-4da864c06a79,mlb.com,Storage,3405 Commercial Plaza,Quintã,Aveiro,Portugal,7085,FALSE
33f618e1-0a4d-4f3b-a365-4e09f6560bcd,yellowpages.com,Distributor,75021 Valley Edge Plaza,Naguilian,,Philippines,9675,TRUE
1e667a71-8a60-4762-bd76-f6285cc054b8,dyndns.org,Storage,8582 Sloan Lane,Opatówek,,Poland,7801,FALSE
e213004c-810a-4a14-9c93-1c7f33fe2907,army.mil,Distributor,33 Rowland Pass,Palmerston North,,New Zealand,7335,FALSE
2e7103a5-2e6f-493b-ab28-2b5eefb92c4c,sciencedaily.com,Storage,011 Buena Vista Place,Opatov,,Czech Republic,8369,TRUE
589cfc7c-d05c-4663-97e2-598d0ce33234,cbslocal.com,Storage,58589 Anhalt Parkway,Emmen,Provincie Drenthe,Netherlands,5360,FALSE
a78b9ba9-3c05-4db5-b227-0a431ca29d83,soundcloud.com,Distributor,41 Doe Crossing Court,Huangjindong,,China,5522,TRUE
d71454d6-842a-4d33-9789-26874eb8142c,ovh.net,Manufacturer,6 American Ash Lane,Yanac,,Peru,6987,FALSE
1364240e-05df-4dd5-b9fb-2584895558e5,dropbox.com,Retailer,00 Logan Way,Sarana,,Russia,5100,FALSE
746048f9-095a-43b9-8a20-2ee82ceee13b,unicef.org,Distributor,2 Mcbride Trail,Tân Trụ,,Vietnam,9463,TRUE
5c6f3ab3-1ad1-4fe8-8ef7-c79a943c20a4,fema.gov,Storage,5128 Loeprich Alley,Esposende,Braga,Portugal,9915,TRUE
917d4e85-3c36-4379-910e-bd0638a068fd,forbes.com,Distributor,56 Michigan Alley,Quibal,,Philippines,7783,FALSE
b0d3e95d-f480-46d7-99d4-a3a4d23146e7,usda.gov,Manufacturer,8016 Utah Hill,Aramayuan,,Philippines,5819,FALSE
6ebbe9f5-c339-481c-8793-fa02ffd55ba8,1688.com,Storage,735 Westridge Junction,Cầu Giấy,,Vietnam,6815,FALSE
0fe2976f-8d05-4a5e-9573-ddbd9d1e6bb9,npr.org,Distributor,691 Armistice Point,Coruripe,,Brazil,5929,FALSE
69ba93e1-dbc4-49a9-8f6d-9765180b1cb8,baidu.com,Manufacturer,9 Golf Course Street,Togu,,Indonesia,6825,TRUE
e86e0376-44d8-422b-aeea-3762fe3a41ba,wordpress.org,Storage,63933 Buena Vista Road,Sokobanteng,,Indonesia,8099,FALSE
51b2cbbb-c5b7-4f74-a299-7e99bd9d597f,linkedin.com,Retailer,86 Schlimgen Court,Independencia,,Peru,8653,TRUE
6997ee14-afdf-4823-9095-fbeda2377d22,rakuten.co.jp,Distributor,21257 Annamark Terrace,Yuandianhui,,China,5956,TRUE
c858f75f-604d-4a59-9d79-d72ddb5bf816,irs.gov,Distributor,4297 Eliot Center,Nowy Sącz,,Poland,7774,TRUE
2088e47f-2b5e-4d86-9b40-f6dfdf43b166,yellowpages.com,Distributor,0 Shopko Junction,Arbeláez,,Colombia,8525,FALSE
0a7ce056-d6cf-4013-ac99-db8e0e8f260e,furl.net,Distributor,0 Harbort Pass,Birao,,Central African Republic,5451,FALSE
f9c103b3-0189-4bc7-a9fd-1fb4b3a6b761,oracle.com,Retailer,3 Annamark Road,Sterlibashevo,,Russia,7413,FALSE
ae212940-2250-4d72-bf93-b8f88222454a,oracle.com,Manufacturer,69 Superior Trail,Medina Estates,,Ghana,9303,FALSE
64b5afe1-986e-4cf7-a5a5-9a3db456ea87,hubpages.com,Manufacturer,42 Gina Trail,Szydłowo,,Poland,6261,TRUE
1fd71add-c4a1-4372-a6f6-c4ea8e548d62,cafepress.com,Storage,47305 Mcguire Terrace,Būrkah,,Afghanistan,8044,FALSE
386e105b-e762-4472-b827-becd463a6061,engadget.com,Retailer,35 Pond Center,Isanlu Itedoijowa,,Nigeria,7889,FALSE
fb38c94d-510a-4755-9aa9-e0787e6bcc50,studiopress.com,Storage,0074 Eastlawn Terrace,San Rafael Petzal,,Guatemala,9139,FALSE
25a3cc43-33bc-4c35-8f1c-a720183ccb4f,tripod.com,Distributor,31949 Melby Drive,Pajapita,,Guatemala,5252,TRUE
64dcce86-74c0-42a3-98e6-75f21ab326b4,1688.com,Storage,433 Bluestem Pass,Jiangtian,,China,6883,TRUE
0b43e390-ba6f-4675-9cb7-d823524739ad,studiopress.com,Storage,42927 Jackson Plaza,Hangou,,China,8567,FALSE
06f63e65-c792-4823-9e73-e6cb13e67be5,ihg.com,Manufacturer,48700 Summer Ridge Street,Huancaray,,Peru,7211,TRUE
96bdf28e-9165-4a16-b17b-7a22e1284822,usa.gov,Manufacturer,8348 Vernon Drive,Macapo,,Venezuela,9235,FALSE
76b3ca79-5d54-4e59-95ed-9fd956656ad8,newsvine.com,Distributor,24957 Tennessee Way,Dijon,Bourgogne,France,5044,FALSE
0ddd3492-97d0-42e4-b005-72b4f3ffc385,myspace.com,Distributor,76 Mayer Park,Bayasgalant,,Mongolia,7454,TRUE
7d3e42cb-4316-4649-849d-962e9c2853b8,smugmug.com,Retailer,75 Brentwood Street,Cakran,,Albania,5567,TRUE
df6f7e95-e8d6-4393-b622-5871a87364a7,time.com,Retailer,716 Eggendart Circle,Khujirt,,Mongolia,7642,TRUE
62098a92-5b76-40e7-b561-2d355dbf9d69,canalblog.com,Storage,1502 Merrick Way,Ketanen,,Indonesia,7136,FALSE
5b10188f-f35d-4ef8-b62e-9bdda2031770,taobao.com,Retailer,7 Cherokee Lane,Huakoulongtan,,China,9417,TRUE
d8e1cd80-1cea-4210-b9cf-e2480b0bd8a6,dagondesign.com,Manufacturer,2 Debra Pass,Bến Tre,,Vietnam,6882,TRUE
0dc0d9b0-ca73-41c2-9f8c-694f7f0e081d,alibaba.com,Distributor,823 Cascade Point,Modis,,Indonesia,9205,TRUE
0ab65ee3-c63b-423a-9177-acb7ef8066c2,dyndns.org,Retailer,77 Shasta Point,Laiponda,,Indonesia,7139,FALSE
0467571a-6ea4-4d19-8354-d8ef362b8951,feedburner.com,Storage,0924 Meadow Ridge Avenue,Lasusua,,Indonesia,9810,TRUE
3d997c74-d114-4989-a8cf-1b7c3e573d91,bizjournals.com,Storage,6 Northland Parkway,Amsterdam Binnenstad en Oostelijk Havengebied,Provincie Noord-Holland,Netherlands,8715,FALSE
4e5f8b5d-2f47-4d4a-95d5-1072b32acaa9,i2i.jp,Manufacturer,48946 Lyons Street,Targanice,,Poland,9864,FALSE
2e59e12f-dfdf-44ce-9e49-78a1eda10e63,blinklist.com,Distributor,0600 Leroy Park,Gråbo,Västra Götaland,Sweden,6960,FALSE
f1efce98-eeb4-4b1a-8246-0cf1db38a0b7,webnode.com,Manufacturer,17 Eggendart Place,Sapat,,Indonesia,8663,TRUE
d499964e-eecf-4a21-ab94-eb1e050981c5,cafepress.com,Manufacturer,854 1st Plaza,Nueva Gorgona,,Panama,5662,FALSE
f26cd546-3715-4e0a-9593-353750e910cd,wp.com,Manufacturer,65 Birchwood Trail,Centralniy,,Russia,9756,FALSE
aa55e95b-c306-4a4b-9107-01994103824a,tiny.cc,Manufacturer,99 Marquette Pass,Qiashui,,China,8377,TRUE
1bdf7af6-02cc-4899-b01b-85de42b5394e,blogtalkradio.com,Retailer,926 Lerdahl Park,Tantamayo,,Peru,9860,TRUE
5b1ba686-a109-4987-a6c4-00e0cbe5c307,moonfruit.com,Distributor,30 Emmet Point,Gurupi,,Brazil,9862,TRUE
8c4929e2-48f1-426d-b14b-0377e41fb754,last.fm,Distributor,24055 8th Pass,Tekstil’shchiki,,Russia,5221,TRUE
3f0d1c3a-5a6e-45bf-8875-329b14dc4dd3,ezinearticles.com,Storage,3691 Lyons Circle,Sankanan,,Philippines,5473,TRUE
cb31a734-7bb5-4621-b117-2b55b2432996,army.mil,Storage,1132 Mitchell Point,Tulcán,,Ecuador,8445,FALSE
fb86ec9c-5c37-4369-9656-db542dce9d25,nymag.com,Retailer,44 Shasta Drive,Vilémov,,Czech Republic,7296,TRUE
fb48f297-1286-40ff-b332-41e96bb027c6,webeden.co.uk,Retailer,94937 Warrior Place,Sofia,,Bulgaria,7387,FALSE
5606cc2f-e5cc-434b-9e7a-61d42acf47ae,ihg.com,Retailer,95333 Forest Park,Dinggou,,China,5162,TRUE
12d57837-c75c-4c29-9e50-a5da0f6e1cd5,blogtalkradio.com,Manufacturer,34269 Pennsylvania Street,Vathýlakkos,,Greece,6220,TRUE
11c347f1-8250-47d4-b8ab-0ee9f0723494,usgs.gov,Manufacturer,92873 Independence Plaza,Hadžići,,Bosnia and Herzegovina,7910,TRUE
88da8d5e-be64-452c-88a5-a371f9d25a41,dion.ne.jp,Retailer,55 Schiller Terrace,Vendychany,,Ukraine,8410,FALSE
2559bca5-43b1-4254-81de-feee5cce4c57,microsoft.com,Manufacturer,42604 Bashford Center,Fort Liberté,,Haiti,9023,TRUE
def770fa-2cb4-4644-9f14-9926e5cbe38c,epa.gov,Manufacturer,99374 Sunbrook Trail,Jesenice,,Croatia,6728,FALSE
372a0a36-88fe-499b-b731-4162c297bbc4,godaddy.com,Retailer,25279 Garrison Lane,El Porvenir,Veracruz Llave,Mexico,5930,FALSE
56f1a829-075c-4ad0-8fb9-4995083b9ba1,omniture.com,Retailer,9841 Glendale Alley,Marićka,,Bosnia and Herzegovina,8762,FALSE
1e8ea51d-b001-42cb-b0a9-c3e3fe72493e,zimbio.com,Retailer,4 Almo Crossing,Heilbronn,Baden-Württemberg,Germany,9298,FALSE
9bce3352-752e-431c-babe-b8879a9e28ec,msu.edu,Distributor,49 Calypso Circle,Mapaniqui,,Philippines,8160,TRUE
1dcc9d4c-f474-4cf3-852a-0b7d943c20a8,dot.gov,Storage,1750 Birchwood Drive,Cambebba,,Brazil,7338,FALSE
087cf713-4fd3-46e6-94cf-5357f702f40b,elegantthemes.com,Retailer,206 Fieldstone Plaza,Stari Grad,,Croatia,8090,FALSE
1fb8d8ec-c07b-43d1-8c13-7171f1a08a2e,huffingtonpost.com,Storage,317 Jackson Hill,Stockholm,Stockholm,Sweden,9060,FALSE
60fa3129-7f27-4c49-b025-b96e48605902,mapy.cz,Storage,57732 Sachtjen Pass,Uruçuca,,Brazil,6223,TRUE
7fcea1b4-bac2-4052-9981-c91a276d4556,163.com,Retailer,826 Del Mar Circle,Jalinan,,Indonesia,7220,FALSE
8353858c-e890-486f-9bce-377f5c7184c8,yellowbook.com,Distributor,48 Moulton Terrace,Piquillín,,Argentina,9252,FALSE
aae90e8a-fea4-4eba-8285-3ad3236329dc,cnn.com,Retailer,0284 Oakridge Lane,Fairview,,Ireland,6018,TRUE
e3eb179c-12b6-4571-b334-8d14adc84d56,miibeian.gov.cn,Storage,882 Mcguire Trail,Maracanaú,,Brazil,6440,FALSE
d0746a45-373a-4a60-b49b-378ecdcfcaf7,pagesperso-orange.fr,Manufacturer,342 Northridge Parkway,Karafao,,Indonesia,7066,TRUE
6e69b3a9-112a-4baa-8135-58c84b05b6bd,mediafire.com,Manufacturer,46688 Maple Way,Jincheng,,China,6721,FALSE
9a6b85d3-0459-4c27-8f50-39b2d27751f9,bandcamp.com,Storage,9374 Truax Pass,Suruhan,,Indonesia,8339,FALSE
96d4759a-34f4-45f9-bcda-aced4d15ec4c,independent.co.uk,Manufacturer,9040 Hooker Court,Nueva Esperanza,Chiapas,Mexico,7541,TRUE
ebf2af2a-5189-4dac-acf5-3810873550ef,infoseek.co.jp,Manufacturer,16 Blaine Park,Santander,Cantabria,Spain,6137,FALSE
c33688ce-13d5-4b79-8c21-d7a7d8bce3be,intel.com,Storage,903 Merchant Pass,Itajaí,,Brazil,8947,FALSE
b86a2f25-2cd2-4f2f-8d9d-79af723f2e1a,weebly.com,Storage,986 Quincy Pass,Przeworsk,,Poland,7911,TRUE
5f012788-0a20-4c1d-bcf3-36859035446e,joomla.org,Retailer,17 Bluejay Point,Shali,,Russia,9859,TRUE
66ee3163-3221-4d9e-bb52-1f7f27593c17,mapquest.com,Distributor,36582 Dakota Terrace,Mampong,,Ghana,6347,FALSE
1fdf9271-bd87-4bd7-8919-553f484c7b8b,bloglines.com,Storage,10536 Blaine Street,Pedro Juan Caballero,,Paraguay,8388,TRUE
cc401afc-5e13-4d3f-a0a1-e2a366fbc9f0,infoseek.co.jp,Distributor,353 Delaware Center,Lichengdao,,China,7574,TRUE
459a4138-1aa1-4e01-b7c1-30013940080a,rakuten.co.jp,Retailer,407 Corben Point,Yuzhno-Sukhokumsk,,Russia,6274,FALSE
5a91b3f3-035d-4d07-8c80-9a9bc0d17d21,4shared.com,Distributor,2 Badeau Alley,Sukarame,,Indonesia,5287,TRUE
c19922ae-4490-4fd8-8927-9e99317431f6,illinois.edu,Storage,4 Hauk Crossing,Shuangxi,,China,6913,TRUE
6c7dffe9-c7d1-4d42-816d-d73f0e0995ec,bravesites.com,Storage,36707 Goodland Parkway,Guyancourt,Île-de-France,France,7053,TRUE
721ed25c-c1f1-4f7b-9381-ecdf2b390115,mapy.cz,Manufacturer,096 Paget Alley,Bourail,,New Caledonia,8490,FALSE
9b3d412c-b169-4987-a95a-a15d41fb66ae,oakley.com,Manufacturer,94550 Haas Avenue,Sanzao,,China,8932,FALSE
ac650b3d-c789-4503-9784-eb9477965bc4,digg.com,Manufacturer,972 La Follette Way,Sumurnanjung,,Indonesia,6490,FALSE
4a48f7e7-ecc2-4da7-8fdb-8a6a403a4655,mtv.com,Storage,12532 Donald Plaza,Abashiri,,Japan,7060,TRUE
c394babe-04a9-4b49-9b7e-6cd5e2837c8a,washington.edu,Distributor,7847 Manley Way,Prosperous,,Ireland,9385,TRUE
bf8380ac-5909-4ec5-a740-d73d6eb47112,paginegialle.it,Storage,9035 Service Road,Jauja,,Peru,9882,TRUE
b77d6db6-b6ff-48fa-ab1e-1088719beaf3,dell.com,Retailer,7851 Trailsway Parkway,Roi Et,,Thailand,6945,TRUE
b2c58c16-1b9d-4b1e-8ca3-0c6607c84886,blogspot.com,Storage,61595 Melby Way,Prosyana,,Ukraine,9484,TRUE
147f7744-bd3f-4141-92f4-b4f6b5bface1,google.ca,Distributor,5 Little Fleur Plaza,Haugesund,Rogaland,Norway,5684,TRUE
66410254-aecc-4b48-89d7-69ffd809b2f4,earthlink.net,Storage,713 4th Parkway,Kurbnesh,,Albania,9654,FALSE
8b1ee303-8a9d-44f9-b620-a6cf6b1731e4,wikispaces.com,Storage,5 Farwell Avenue,Sumberrejo,,Indonesia,6021,TRUE
7b3b0aff-872a-4c4f-82e6-3a860bf12625,pinterest.com,Distributor,050 Swallow Way,Hexi,,China,7184,FALSE
374a0c3f-3053-48e9-9d05-5243635b9a0d,i2i.jp,Distributor,3618 Dovetail Trail,Echeng,,China,8506,TRUE
7d5fcff2-c67a-4980-8d74-48ac6ed4f84f,mashable.com,Retailer,64 Stephen Pass,Gyōda,,Japan,8316,TRUE
24c147d5-d33c-4ca2-bd85-839f3e3af504,google.ca,Manufacturer,2 Scoville Place,Ilesa,,Nigeria,7972,FALSE
59adcee2-f9d2-4368-8d13-9dd8fd5d72c4,thetimes.co.uk,Storage,1 Green Ridge Trail,Soe,,Indonesia,8456,TRUE
6365c1f5-fec9-4846-8e7e-607c94669bd3,icq.com,Storage,9917 Eagle Crest Alley,Pulap,,Micronesia,6263,FALSE
6038c905-f5e5-4aa1-8a7c-f6bd62f5e8ef,vk.com,Distributor,597 Memorial Trail,Gniezno,,Poland,7740,TRUE
0b0482dc-bce0-46a5-b929-d9a1f260c6f6,woothemes.com,Storage,208 Jay Parkway,Orocuina,,Honduras,6226,TRUE
1feb62c8-61f7-44ce-a855-fe215a6dd8b2,google.de,Manufacturer,765 Heffernan Road,Deje,Värmland,Sweden,9045,FALSE
4483543d-a193-43aa-a9f8-351f233c6fd8,canalblog.com,Retailer,3367 Amoth Parkway,Baisha,,China,7051,TRUE
4aea7d2c-3611-4458-8085-a60caee097fb,etsy.com,Storage,843 Thackeray Center,Wutong,,China,7952,TRUE
09449211-22c6-495b-8e03-d7b12ace1a04,google.nl,Retailer,46520 Kropf Center,Semënovskoye,,Russia,5269,TRUE
740f1aa5-4321-490f-a866-725223d5bdb1,springer.com,Distributor,28530 Eggendart Way,Cerro Azul,,Argentina,8549,TRUE
a05ba2a4-4397-4b0f-9d5c-fad611676fb4,wiley.com,Retailer,7 Mosinee Lane,Castanheira,Viana do Castelo,Portugal,9089,TRUE
60ec69c5-1c7f-42e1-83ec-052079a45e0d,booking.com,Storage,281 Welch Place,Camp Flora,,Philippines,5025,TRUE
177b70ef-261f-46ac-8f63-c1b4fcac2e20,utexas.edu,Distributor,18233 Steensland Circle,Rufino,,Argentina,6717,TRUE
4980d92e-7bb7-4c3b-82e2-5fd4fb41528c,ihg.com,Storage,10841 East Center,Shingū,,Japan,7611,FALSE
8e250da9-db61-4e99-ab68-f0225a0b2ae3,nature.com,Manufacturer,99382 Nobel Street,Louisville,Kentucky,United States,8872,FALSE
62bf851b-89d3-4d68-88bb-95d67e59b542,paypal.com,Storage,3960 Mariners Cove Avenue,Mwene-Ditu,,Democratic Republic of the Congo,9155,FALSE
31568dc1-1ccb-4760-9678-5ba64427c8bd,cbsnews.com,Distributor,0 Roxbury Alley,Putre,,Chile,6412,FALSE
70d36586-87c3-4771-9119-f3d0e3286bdb,wunderground.com,Manufacturer,237 Arrowood Terrace,Bitam,,Gabon,8905,TRUE
687c206f-6cba-48cf-91ca-def6b4ff3068,mtv.com,Manufacturer,25 Riverside Circle,Dadong,,China,9378,TRUE
bf9286df-9b3f-455b-a164-8ebe19af4ffc,sogou.com,Manufacturer,7147 Oakridge Plaza,Xilanqi,,China,9238,FALSE
b8291771-c0e1-4891-8adb-f5b006d5a67a,istockphoto.com,Retailer,87500 Crest Line Park,Noyelles-sous-Lens,Nord-Pas-de-Calais,France,6318,TRUE
3ba8c152-30d1-4863-84a2-2f1a25bb267c,dell.com,Retailer,0 Johnson Street,Layog,,Philippines,9655,FALSE
0be4da3d-5ec1-497b-b273-bf93fbf0614e,unicef.org,Retailer,373 Clemons Alley,Huayuan,,China,7555,TRUE
88d97c17-a8df-4c62-94f8-e3e2fdb627a8,constantcontact.com,Distributor,1363 Mifflin Park,Yanjiang,,China,5277,TRUE
b5bd15ac-1db9-472c-b716-2530f0619769,wordpress.org,Storage,085 School Street,Jungutbatu Kaja Dua,,Indonesia,7501,TRUE
bf0574df-ab28-458e-96a2-770eabf4e4f9,archive.org,Retailer,07 Bay Crossing,El Progreso,,Panama,9137,FALSE
7a3d63a8-60a5-435a-83da-d33dfe82bf57,usda.gov,Storage,3 Jana Plaza,Perrelos,,Philippines,7020,TRUE
f1e25fae-0d29-4ad3-ad9f-762142f65e49,biblegateway.com,Storage,3207 Emmet Center,Vänersborg,Västra Götaland,Sweden,7070,FALSE
6a6266b9-fb09-4752-9593-99bda0a5c369,cmu.edu,Manufacturer,7 Meadow Vale Parkway,Spitak,,Armenia,7674,TRUE
df87845e-656a-4c17-99b5-df75cb067550,epa.gov,Retailer,2 Elka Junction,Alindao,,Central African Republic,9567,TRUE
28db953c-77ef-4c23-937b-203fa37d149c,vkontakte.ru,Storage,531 Anniversary Circle,Kostarea Satu,,Indonesia,8548,FALSE
2092a5b2-373d-4117-a350-463f5be07a68,edublogs.org,Distributor,9 Homewood Avenue,Benito Juarez,Tamaulipas,Mexico,7353,FALSE
c1196cba-0271-45ad-9715-9ec2832d8e67,pinterest.com,Distributor,0762 Stone Corner Alley,Kataba,,Zambia,7668,FALSE
1e0ba8f4-27e7-4aa5-8abb-f6ca75519295,google.it,Retailer,8453 Schlimgen Hill,Veselí nad Lužnicí,,Czech Republic,6204,FALSE
5c14c6da-9157-441c-b9ed-aeba9be0b416,clickbank.net,Retailer,9028 Gateway Place,Dniprovka,,Ukraine,7202,TRUE
0bcdf9af-a41b-4125-a366-ded1ad661fe9,wikipedia.org,Distributor,75 Roth Court,Fort-de-France,Martinique,Martinique,8523,TRUE
37713fba-2c04-40a6-8bca-8acd591d3344,sakura.ne.jp,Distributor,00 Stone Corner Trail,Nizhnepavlovka,,Russia,9818,FALSE
5880cc2c-f6c8-45a0-b74a-f734b6f7f791,webeden.co.uk,Manufacturer,41574 Prairie Rose Park,Deder,,Ethiopia,8158,FALSE
481bd4d7-70ba-4af3-85ff-e0b693be2c3c,webeden.co.uk,Manufacturer,670 Scoville Center,Plandi,,Indonesia,8770,TRUE
5a23b76a-320f-4c82-a7bb-6651d7da2ce8,plala.or.jp,Manufacturer,5964 Mcguire Road,Burlatskoye,,Russia,9121,TRUE
0b340af8-03fa-40bc-9d30-50188c579dcf,springer.com,Retailer,95612 Glendale Park,Saint-Avold,Lorraine,France,9582,FALSE
6b08b0ee-79a9-488c-807b-b8ede03d9fa0,admin.ch,Distributor,8981 Arrowood Hill,Malec,,Poland,8878,FALSE
dcd2c5ae-6f6b-41dc-b9a7-61e62e51fd93,joomla.org,Storage,97304 Dennis Court,Dzhankoy,,Ukraine,9949,FALSE
b689c0a1-6876-493f-bb7c-9898fe02abbd,bigcartel.com,Storage,2144 Vidon Plaza,Padre Las Casas,,Dominican Republic,8159,FALSE
ccd982dd-494c-474e-a7ba-2307fbc74bc6,yahoo.com,Distributor,0 Atwood Place,Gaotaizi,,China,5434,FALSE
8ded512c-cbf3-4201-8dce-0109c3b6a609,rambler.ru,Storage,8225 Maple Plaza,Khrenovoye,,Russia,9292,TRUE
b3f678ce-1e40-4be8-a9be-c4a157231625,hostgator.com,Storage,6 Ryan Alley,Iracemápolis,,Brazil,9125,FALSE
8c3620f0-c7f7-484c-9de8-f6f14f4b0ff8,amazon.de,Manufacturer,4 Lotheville Place,Cuihuangkou,,China,8783,FALSE
8364da73-85e4-4423-b7fd-0ba5b90b3f4a,discuz.net,Storage,916 Lakewood Avenue,Jangkat,,Indonesia,8732,FALSE
2bd8732c-479b-4d6e-8734-e2d4868d697c,wufoo.com,Manufacturer,07 Oak Alley,Hingatungan,,Philippines,6820,TRUE
3baa0864-7048-4604-95ad-d8d0afa9f855,google.es,Storage,2 Milwaukee Parkway,Jandira,,Brazil,5120,FALSE
6787b332-263e-4afd-abb9-78ecc6ee3aa0,1und1.de,Retailer,56257 Summer Ridge Court,Farīdpur,,Bangladesh,6580,TRUE
4dfef9f2-febb-48d8-8e7d-73347889eaf5,wisc.edu,Distributor,44714 Atwood Hill,Riangbao,,Indonesia,7437,FALSE
0286658f-7e33-4a3a-a92d-2aba923cb468,cdc.gov,Distributor,13927 Veith Parkway,Malanów,,Poland,5236,FALSE
3685f208-f5e8-4631-8de9-da6a2ecaf8dd,weibo.com,Retailer,498 Knutson Avenue,Alcoy,,Philippines,8655,TRUE
3ace86ea-96fc-4171-867b-d6b01c18271f,tiny.cc,Distributor,72771 Lotheville Pass,Ussel,Limousin,France,7367,FALSE
f89a9d73-f270-4cdb-b81a-008aee7f2a1b,delicious.com,Storage,14 Ridge Oak Drive,Yên Bái,,Vietnam,8966,TRUE
869b54c7-3f87-491a-bfd1-3a3e4ef68ab1,google.com.au,Manufacturer,9765 7th Hill,Gaoyi,,China,5302,TRUE
a4ce5f80-a494-4f66-8185-f9e85a2fe1b3,yelp.com,Storage,7032 Johnson Place,Pitalito,,Colombia,9129,TRUE
bfe68986-19c7-4b97-a3bf-8fdd38b6028c,patch.com,Distributor,7276 2nd Center,McKinley,,Philippines,8942,TRUE
87b1c0da-bbd8-4bac-9c71-f84d6287b031,economist.com,Distributor,9637 Eastwood Terrace,Jintan,,China,9708,FALSE
d07417b2-0b6c-435f-b077-db0d7b49bce8,apple.com,Manufacturer,46 Mallory Circle,El Plan,,Honduras,8129,TRUE
b223e044-490c-4d02-956a-5a999f8c46d8,hubpages.com,Manufacturer,255 Blackbird Place,Roboré,,Bolivia,6538,TRUE
9611a9ea-a409-460f-bfd4-3bb044112463,cbsnews.com,Manufacturer,15 Rigney Place,Doushaguan,,China,9067,FALSE
bf0a9c5d-3b10-4ca1-acd0-c453ee1535a8,etsy.com,Retailer,61421 Sherman Park,Saint-Louis,Alsace,France,6290,TRUE
c8514054-29ce-4bd8-afbc-117f880bd3db,bluehost.com,Manufacturer,6015 Mayer Circle,Kupusina,,Serbia,5863,TRUE
caf1a5b7-2bcc-4b23-879d-441a16f8fdf9,tripadvisor.com,Distributor,0 Mayer Pass,Yinzhu,,China,6298,FALSE
01825b44-009e-4d2f-8d5b-08b24de15f70,jimdo.com,Manufacturer,1 Summerview Hill,Pittsburgh,Pennsylvania,United States,8421,TRUE
f0ad8c39-dcc1-4408-9d02-3d23232d552a,europa.eu,Manufacturer,396 Kennedy Drive,Bayaguana,,Dominican Republic,9321,TRUE
304c4f88-eaee-4a31-9c6e-7f1e32a5157e,studiopress.com,Storage,93 Drewry Plaza,Bauang,,Philippines,6929,FALSE
ddf5aa1c-862a-440b-9c03-f38ff68ef5e9,bizjournals.com,Storage,8 Dwight Pass,Chulakivka,,Ukraine,5584,TRUE
81d88371-206f-453f-a918-a46c3ddc219b,mlb.com,Retailer,79 Oxford Way,Kirovgrad,,Russia,9657,TRUE
f480cd38-6a14-4f64-8d1a-30fc0dd768d8,liveinternet.ru,Retailer,566 Stone Corner Center,Tegalalang,,Indonesia,6332,FALSE
8e1d3049-55bd-44b9-b96b-7b862b3c2a4f,chicagotribune.com,Storage,046 Bashford Avenue,Mayingzhuang,,China,9749,FALSE
b6439716-de6e-4bf0-8aca-9cf554846417,a8.net,Storage,4217 Bunting Road,Siding,,Indonesia,6764,TRUE
dbb87b3c-9da0-47c7-8f4d-4f50f8deb70a,latimes.com,Distributor,8448 Elgar Point,Urazovka,,Russia,6243,TRUE
e94bcd5a-20b5-4423-8bc4-1cfb0f7b115d,walmart.com,Manufacturer,1586 Sugar Lane,Huacrapuquio,,Peru,9817,TRUE
0f4ae127-e361-40fe-9650-6a4e572fc557,wp.com,Distributor,34 Susan Center,Barotac Nuevo,,Philippines,9877,TRUE
59873007-630b-4515-b905-f885d8f29284,wufoo.com,Storage,06674 Jackson Lane,Huambalpa,,Peru,6700,FALSE
f9c0c5aa-8ba4-471f-a125-37bfd85b2c16,netscape.com,Distributor,56 Kennedy Terrace,San Manuel,,Philippines,8153,FALSE
88d6e1f3-2d00-44cc-9fc6-6baa2fb121a2,indiegogo.com,Distributor,89433 Larry Street,Starodub,,Russia,6143,TRUE
2f437b3a-059d-4929-97c8-e2cd26325e8a,jiathis.com,Storage,51181 Thierer Pass,Barão de Cocais,,Brazil,7173,TRUE
c76315c4-e0d7-47e2-b7f2-13e6614af79f,weather.com,Manufacturer,7444 Commercial Trail,Al Başrah,,Iraq,7038,FALSE
bcc562bd-0d07-4437-bb7f-23c1736f5b28,fc2.com,Storage,95840 7th Lane,Huangbizhuang,,China,6562,TRUE
eda81512-8108-4b5f-8c8f-9ce91c0a2e95,vinaora.com,Distributor,8531 Arapahoe Way,Qili,,China,6741,FALSE
1fa6c943-f8e5-4000-ad80-3270a17ed669,timesonline.co.uk,Storage,5 Cascade Plaza,Seke,,China,5050,TRUE
99bac33e-ed78-4a87-84c7-57bf141f2c12,apache.org,Storage,47 Stang Terrace,Radiměř,,Czech Republic,6661,FALSE
c10b432e-3bca-4381-b316-65b8014f9f03,huffingtonpost.com,Manufacturer,1 Clove Crossing,Mönchengladbach,Nordrhein-Westfalen,Germany,9220,TRUE
6bdc4261-56c9-4ad5-a9a5-292753d1f011,va.gov,Manufacturer,90 Toban Way,Amiens,Picardie,France,7748,FALSE
573fce4e-4d44-4f1b-a99a-fb61d96804c6,nature.com,Storage,241 Monument Junction,Cikadu,,Indonesia,9963,TRUE
df093840-2be4-43bc-91ba-9bdeb1dee397,fema.gov,Retailer,0 Darwin Hill,San Teodoro,,Philippines,9634,TRUE
cd253c24-c72b-4d91-bcd6-1f4e06a01d39,webnode.com,Storage,23 Linden Crossing,Frutal,,Brazil,7106,FALSE
bba62e14-6427-4652-a760-7994f0b7e8c6,salon.com,Retailer,2 Golden Leaf Park,Prado,,Colombia,7836,TRUE
a1da51ad-f605-438a-af5f-3030a92897c4,columbia.edu,Manufacturer,46 Maryland Junction,Isfahan,,Iran,7157,TRUE
dcacd254-7d73-4f37-a21a-72ce2148979f,blogger.com,Storage,6001 Hoffman Center,Pefkochóri,,Greece,8059,FALSE
2e11c024-cf8d-47de-8711-f9f608cabedc,examiner.com,Manufacturer,25107 Waubesa Park,Amouguer,,Morocco,5173,TRUE
298a0fbf-d2c3-4647-9679-aa036d6fe744,cmu.edu,Distributor,0296 Del Sol Hill,Jargalant,,Mongolia,7705,FALSE
b78716ec-1649-424d-b059-238791e10ce6,fastcompany.com,Storage,995 Continental Street,Xingou,,China,8525,TRUE
dd4efdd0-1627-4b19-af76-901af30333ec,scribd.com,Retailer,37224 Killdeer Terrace,Paulpietersburg,,South Africa,8122,TRUE
e2a66ff2-bdf0-4b5a-adce-232111c39702,virginia.edu,Distributor,061 Burrows Place,Gobernador Gálvez,,Argentina,5763,TRUE
a8d90677-0d1f-4c88-86ee-8960ae6a5a95,barnesandnoble.com,Storage,9 Calypso Court,Doctor Juan León Mallorquín,,Paraguay,6920,TRUE
891d4e81-561f-4ddb-ab5e-4a62b6fd3900,eepurl.com,Storage,25 Golden Leaf Pass,Smolensk,,Russia,9132,FALSE
177676df-8b51-4461-a743-ba7036644c6f,google.cn,Retailer,9183 Marquette Center,Qianjia,,China,6573,TRUE
b8c42c0b-8b49-4e6c-94df-ae9dd60945d4,reuters.com,Storage,16 Westend Pass,Fálanna,,Greece,8783,TRUE
77b3c438-0968-41fd-aaf8-2b0ec527ee34,hao123.com,Storage,122 Fordem Terrace,Maple Plain,Minnesota,United States,7239,TRUE
bd36cd31-1a38-45da-af5f-34a9d65b33f0,squidoo.com,Distributor,2 Continental Drive,Pejibaye,,Costa Rica,5094,FALSE
0a79b2bd-1fbc-4de7-b9ee-55f4a199fae2,go.com,Storage,8617 Oak Valley Park,Nagrog,,Indonesia,9826,TRUE
d91efad0-4e44-480a-81b8-c1f5c9eb59bd,gnu.org,Manufacturer,979 Bartillon Circle,Dālbandīn,,Pakistan,8363,TRUE
a75c51dd-611a-4dff-88c2-6ffc02c83121,vkontakte.ru,Distributor,6 Farragut Center,Zhongtang,,China,7542,FALSE
e4341590-311e-4bad-aafa-7574680c9357,nba.com,Manufacturer,899 Aberg Alley,Svoge,,Bulgaria,9990,FALSE
bded3332-568e-46ea-98ae-5cddd3f0aa99,google.pl,Distributor,3169 Ruskin Terrace,Lelydorp,,Suriname,9588,TRUE
9bff14e0-8eec-4a0c-9a36-b4a8180043eb,who.int,Distributor,861 Fallview Drive,Łaskarzew,,Poland,6475,TRUE
3ab25e03-a373-4145-a730-dcef152310b2,wordpress.org,Manufacturer,22 Doe Crossing Way,Pudoc,,Philippines,8542,FALSE
1f08fc3c-5d35-45b4-a353-3ad13d2711c4,mit.edu,Distributor,0082 Haas Lane,Beicheng,,China,7016,FALSE
aede096b-4230-4fd1-b98e-229a1e9c7568,ihg.com,Storage,8141 Messerschmidt Hill,Ferrol,,Philippines,5857,FALSE
a95ef409-4ebf-4cda-a942-dc7c3cfca62e,ebay.co.uk,Storage,37 Anderson Pass,Omiš,,Croatia,6536,FALSE
a11ba38b-c482-4483-8b38-8abad6b7f2da,storify.com,Distributor,33 Marcy Trail,Saravia,,Philippines,7848,TRUE
065c794a-f5a6-4ae4-8972-26989fc254bb,t.co,Retailer,20987 Forest Run Parkway,Mataloko,,Indonesia,8193,FALSE
d13c272e-c042-4986-bc72-6960322884cc,virginia.edu,Distributor,0 Lake View Avenue,Santa Catalina,,Peru,6204,TRUE
f7274576-7101-4051-9f30-66ca09c0331f,etsy.com,Distributor,499 Jana Point,Padina,,Serbia,6948,FALSE
7e96acf0-162b-44f8-8f7e-ff3b7b1076da,ox.ac.uk,Manufacturer,93067 Dixon Center,Immātīn,,Palestinian Territory,8418,FALSE
5d38e24c-b019-4fa7-8d90-553d81b37dfd,simplemachines.org,Manufacturer,18 Corben Way,Semikarakorsk,,Russia,5342,TRUE
bd8a47eb-3873-4eba-8158-ebf5666607cd,example.com,Manufacturer,22590 Vera Crossing,Reshetnikovo,,Russia,5963,TRUE
7f36cce6-d94a-493f-bc4d-ea7b77939226,biglobe.ne.jp,Retailer,22730 Tony Terrace,Wudan,,China,6383,TRUE
c50f156d-8d6a-43e4-bc62-9a5fa861b3b2,is.gd,Manufacturer,91 Blaine Road,Kalapadua,,Indonesia,8866,TRUE
2d659cb2-5dc6-4cfc-9255-9e6e4c549c1b,163.com,Manufacturer,49061 Rieder Pass,Qorveh,,Iran,6176,TRUE
4d4e8827-a9f5-4b6b-a0ae-7af2afc35f0d,tumblr.com,Manufacturer,1909 Kensington Lane,Jalupang Dua,,Indonesia,6424,TRUE
ba16ef3e-bd11-4c9b-aeb4-a27241798593,kickstarter.com,Storage,4667 Judy Center,Berlín,,El Salvador,7826,FALSE
ad7f9191-3eed-479d-b046-1745237d987f,statcounter.com,Storage,97 Rusk Drive,Przecław,,Poland,6023,FALSE
120af79d-685c-4a6e-b52b-27103268e790,techcrunch.com,Distributor,2 6th Junction,Cibitung,,Indonesia,6646,FALSE
13d31d4c-1fed-4d56-8e36-a3ce1b91a88a,unicef.org,Distributor,56690 Shopko Street,Basyūn,,Egypt,5258,TRUE
f8a1fab3-06da-494a-bf82-48cbcb877f5e,cyberchimps.com,Distributor,543 Clove Lane,Stakhanov,,Ukraine,7770,FALSE
364e0264-804e-49cb-b507-5c2e04282981,51.la,Distributor,94982 Eggendart Alley,San Benito Abad,,Colombia,5877,TRUE
f51283eb-d0bc-4267-8947-f9ba0b03928d,census.gov,Manufacturer,6 Arizona Way,Jiaoxie,,China,8202,FALSE
d2b4804c-af5f-4419-bc46-d6d03e17a793,si.edu,Storage,6 Mifflin Street,Sudoměřice,,Czech Republic,8368,FALSE
97f4e42e-3042-48b3-a163-2a204b67baea,hugedomains.com,Manufacturer,23686 Sugar Center,Wanbu,,China,6133,FALSE
c342abe3-6fe5-4b49-b1f4-94fd8afd497e,uiuc.edu,Retailer,26806 Esch Place,Nova Varoš,,Serbia,9499,FALSE
99703bc4-ab01-4331-a1dd-70e4c80fe291,miitbeian.gov.cn,Storage,90 Bayside Court,Huabu,,China,8038,TRUE
4c563998-00d3-4f15-9089-0bc3d756cf8e,google.es,Distributor,3 2nd Court,Limulan,,Philippines,5219,TRUE
42dd36dd-8505-4c75-9721-081c85f12347,discovery.com,Storage,67 Duke Junction,Bi’r Ḩāt,,Yemen,5511,FALSE
16787334-8721-427f-bc39-3ea72fc75bbc,com.com,Distributor,28829 Bellgrove Point,Dongbei,,China,9828,FALSE
14be38b1-551d-4f9a-a4b5-9d2396d33635,privacy.gov.au,Retailer,384 Cody Avenue,Bol,,Chad,5076,FALSE
9b3b416c-f138-401b-a4da-f8249c338658,storify.com,Storage,2 Hagan Junction,Kasugai,,Japan,7662,FALSE
0d094d82-6714-4248-a5a3-e9a618a4e7a6,diigo.com,Distributor,0698 Pearson Circle,Chunjiang,,China,8992,FALSE
a23000e6-d964-4ea2-97b2-1d32f1b6c574,cdbaby.com,Distributor,7 Briar Crest Point,Tanabi,,Brazil,7667,TRUE
0eb16fdb-03dd-4898-813c-d3290fe0e8e5,lycos.com,Distributor,191 Mallory Circle,Nueva Germania,,Paraguay,5908,FALSE
71feb921-e739-484b-a133-e2bccbd0c8ae,businesswire.com,Distributor,5 Shoshone Street,Steinkjer,Nord-Trondelag,Norway,9983,FALSE
3124600a-1e1b-44e1-b2d8-dc4f061b42cd,joomla.org,Storage,24 Towne Avenue,El Puente,,Honduras,6554,FALSE
90df0b73-a76e-4b66-9e5a-ff28900642d1,topsy.com,Retailer,0427 Ridge Oak Lane,Kumalarang,,Philippines,5672,TRUE
76723396-c2a2-4bd0-9639-59911e8ed9ae,shutterfly.com,Retailer,9 Boyd Avenue,Vista Alegre,Aveiro,Portugal,8571,TRUE
c89dbbc8-1501-4d27-b732-e0d75e37a92c,hao123.com,Distributor,0 Crowley Crossing,Mikulášovice,,Czech Republic,8604,FALSE
4503a13c-97ac-4360-b27c-f77bf5343374,businessweek.com,Manufacturer,83327 Brentwood Road,Milton,England,United Kingdom,5770,FALSE
39728f5f-c2dd-4dde-82c4-a2f21320f0d3,hp.com,Retailer,4 Moland Avenue,Rio Grande da Serra,,Brazil,5616,FALSE
dafc50a6-1bc8-4839-b4bd-d9d028d0f35a,wikispaces.com,Retailer,6 Arizona Pass,Buenavista,,Philippines,8977,FALSE
6b6bc66b-8e38-45de-87d0-0373de7f1695,walmart.com,Storage,9067 Donald Place,Auna,,Nigeria,7406,FALSE
9102a369-8712-4689-8225-3ad1fc48c9b4,usgs.gov,Retailer,632 Wayridge Plaza,Tangcun,,China,5541,FALSE
53ebf02e-bf6e-4a1a-854e-3cd990cf93f0,trellian.com,Storage,3674 Esch Road,El Copey,,Colombia,5122,TRUE
33dc225a-b8a4-4d23-9fc3-ae429839f548,dmoz.org,Retailer,93 Bartillon Junction,Jatirogo,,Indonesia,8597,FALSE
5edf6b1b-3996-49f9-b9d9-311ba6441aeb,domainmarket.com,Storage,395 Butterfield Lane,Oof,,Indonesia,5975,TRUE
ed4e5163-94e5-43af-b1e1-ce9cca056fc2,biglobe.ne.jp,Retailer,91413 Vahlen Center,Sendangwaru,,Indonesia,9419,TRUE
f9289129-f185-4a65-be1f-69ba6404d2d4,qq.com,Storage,63579 1st Parkway,Kachia,,Nigeria,6048,FALSE
0bde554f-0786-4bc9-8091-06333af9dbf3,virginia.edu,Distributor,4629 Farragut Parkway,Pećigrad,,Bosnia and Herzegovina,9819,TRUE
257ccb50-42de-45b3-9d52-f73baffbcabb,nba.com,Retailer,68 Westend Lane,Puente Nacional,,Colombia,7564,FALSE
478d8c4c-47a6-4c53-b1f9-98446f467c1a,pinterest.com,Storage,496 Crest Line Point,Nanmen,,China,6819,FALSE
b569ab7e-2ea3-4425-b5e8-32c5274f93d8,sogou.com,Manufacturer,51715 Fuller Way,Okotoks,Alberta,Canada,7596,TRUE
9d5d019c-7094-4b5b-8d98-d2fff03deb1f,npr.org,Manufacturer,5892 Golden Leaf Pass,Lajedo,,Brazil,7160,FALSE
cf814f5e-9022-4c17-b7a5-eb3b9820e8e5,zdnet.com,Distributor,08 Springview Park,Clearwater,Florida,United States,6261,TRUE
9a317283-4f9e-4e7e-a070-dbbda56b46c0,house.gov,Distributor,721 Westerfield Lane,Áyios Nikólaos,,Greece,7239,FALSE
60da6a5b-f67e-4898-bf73-b50d9270c429,about.com,Storage,47850 Continental Park,Jubao,,China,9243,FALSE
91b4fbe6-8520-4188-a907-e89fe291eeec,myspace.com,Storage,4 Lunder Alley,Libu,,China,7095,FALSE
02120589-25b9-4197-a39d-2d26db1530f0,indiatimes.com,Retailer,52 Sauthoff Junction,Singabarong,,Indonesia,9878,FALSE
9627ba4e-f276-45b9-8f9c-5b64fa251d1d,taobao.com,Retailer,765 Schurz Point,Navotas,,Philippines,5677,TRUE
18ce0d5c-73bf-495a-ab43-f0a6e2031518,craigslist.org,Manufacturer,56 Algoma Circle,Confey,,Ireland,5319,FALSE
2323db03-95c6-4cf4-a0fb-e2910f325fae,wp.com,Manufacturer,39965 Swallow Parkway,Matoupu,,China,5377,FALSE
62beb14b-6e75-4b6a-82b0-859b4b72655e,cbc.ca,Manufacturer,90600 Lunder Trail,Itabira,,Brazil,6766,TRUE
1d1bf294-81c3-47db-ba2a-fc7b3ccb1d6c,webmd.com,Distributor,0 Kensington Alley,Mādabā,,Jordan,8630,TRUE
d6d47513-90c3-47be-a7bc-abdd96be08fa,instagram.com,Distributor,73 Debra Court,Inglewood,California,United States,8079,FALSE
8c282937-5960-494f-a710-91471ded0fe9,weibo.com,Storage,59 Mifflin Drive,Saint-Brieuc,Bretagne,France,7571,FALSE
e934b91e-6faa-42c6-9c72-f92776f80638,quantcast.com,Manufacturer,977 Forest Run Parkway,Al Jamīmah,,Yemen,6184,FALSE
17c4375f-d6af-4c8f-bbaa-7e3a15f4e537,hao123.com,Retailer,418 3rd Hill,San Juan Pueblo,,Honduras,5900,FALSE
594f4cb2-06ba-4577-a2e8-648e1003161a,mashable.com,Retailer,7961 Victoria Drive,Sísion,,Greece,9739,FALSE
4fe29cc0-bae9-4ca0-b5f8-56599cbb4f3d,zdnet.com,Manufacturer,55 Forster Circle,Ronneby,Blekinge,Sweden,8224,FALSE
d592d21d-d8ee-4095-895f-a15b769ba708,123-reg.co.uk,Distributor,53874 School Center,Yubileyny,,Russia,7180,TRUE
c489b401-78e6-4d8f-a739-a1d4a530de18,cargocollective.com,Manufacturer,06 Mccormick Street,Jiaqiao,,China,6701,TRUE
423d7655-0970-4b64-9258-66b1ac408de4,xinhuanet.com,Retailer,47 Rutledge Parkway,Jacaltenango,,Guatemala,9902,TRUE
a44e9d69-25e4-483f-8504-5333d7e2d7e3,com.com,Storage,882 David Circle,Kobylanka,,Poland,7856,TRUE
83a6a0be-289d-4c81-a9b4-0fe7f8bb9e8d,constantcontact.com,Retailer,48 Amoth Plaza,Burao,,Somalia,6572,FALSE
05a6428d-58a0-4a3f-aa9f-6bbc5d69fc6b,creativecommons.org,Retailer,4 Pearson Lane,Berlin,Berlin,Germany,9675,TRUE
bc81a798-151d-452c-9fac-d41f699ea972,patch.com,Manufacturer,80 Haas Point,Puerto Galera,,Philippines,9609,FALSE
74a5eed7-7f71-44ad-b19e-2e97c255b6a9,chronoengine.com,Storage,37 Calypso Way,Omīdcheh,,Iran,5986,FALSE
777bcffa-c30e-4af3-9cb3-8b5815f4fff0,nps.gov,Manufacturer,1 Moose Road,Huangshi,,China,9486,FALSE
b8c6fb22-b6d0-487d-aa6d-3c7620d60fc1,about.me,Manufacturer,7717 Hovde Road,Wilkes Barre,Pennsylvania,United States,8477,TRUE
7cce9e4b-2dc8-4081-a67e-3b5ae819e360,newsvine.com,Retailer,19490 Maryland Lane,Caoxi,,China,5889,FALSE
cfe6ddb3-8f10-424c-9939-115296a76a21,youku.com,Retailer,1792 Dawn Park,Smolenskoye,,Russia,8222,TRUE
0350ce23-a06d-495b-b489-3ec37121d0f4,chicagotribune.com,Retailer,824 Karstens Junction,Longjumeau,Île-de-France,France,5112,FALSE
7fc6cdad-a001-4403-8235-460e76a4d577,virginia.edu,Distributor,1890 Donald Point,Mílos,,Greece,5217,TRUE
d8edf0a8-1099-4b0d-a8a2-b29670f382b7,unc.edu,Distributor,5474 Crest Line Court,San Juan,,Philippines,5104,FALSE
064d8434-3007-4276-b7b2-9c9cd78ab83b,salon.com,Retailer,48 Aberg Court,Hengpi,,China,6138,TRUE
355850ba-e4d5-40b1-bf11-bc986214b7ad,soup.io,Manufacturer,21236 Bobwhite Point,Salvacion,,Philippines,7430,TRUE
0b394153-981e-4bd0-b83c-52293fc5920d,trellian.com,Distributor,82100 Transport Road,Hollola,,Finland,6175,FALSE
4cfd036e-7b45-43d2-ae12-1a451827b716,wikimedia.org,Storage,3 Oneill Court,Coalaque,,Peru,8769,TRUE
1c2704c2-6318-4761-b52e-86f1ea249204,mapy.cz,Manufacturer,67 Victoria Court,Sekongkang Bawah,,Indonesia,5474,TRUE
e6a777fd-8ce0-482e-8acf-0b94aa31a46d,weather.com,Distributor,24553 Carioca Hill,Soba,,Nigeria,9810,FALSE
b4c0a30d-ff20-43e7-93d7-1d6c4d1204f6,japanpost.jp,Storage,4575 Bonner Circle,Bulung’ur,,Uzbekistan,7428,FALSE
fc60e08a-b823-4485-9408-8e3cd5f05cb0,nps.gov,Distributor,238 Ramsey Circle,La Valette-du-Var,Provence-Alpes-Côte d'Azur,France,8949,TRUE
a5f19dc5-63a9-4a89-a21e-d6d793b3bcdc,pcworld.com,Storage,48340 Pennsylvania Pass,Nossa Senhora de Machede,Évora,Portugal,5280,FALSE
89664f61-0418-494b-80d6-f9425556bed0,dedecms.com,Manufacturer,81144 Drewry Lane,Setun’,,Russia,7767,TRUE
1fd8f126-8d50-479d-9639-1cdb4c4b8e50,google.co.jp,Distributor,22130 Vermont Parkway,Sosnytsya,,Ukraine,6707,TRUE
c666498e-4a24-46ef-bd85-6eaa1ef0a017,mozilla.com,Distributor,45134 Pennsylvania Court,Kakan,,Indonesia,6057,TRUE
a97ea218-000d-422b-bc34-960b9bb192e0,guardian.co.uk,Distributor,254 Dawn Plaza,Bouillon,Wallonie,Belgium,6979,TRUE
dfc76b9e-47fe-4242-894f-81394b47b86e,msu.edu,Storage,4 Rowland Circle,Dob,,Slovenia,9203,TRUE
de6a2c96-c9ff-4e3d-ab64-5ba07988b32f,icio.us,Manufacturer,79 Oneill Road,Primero de Mayo,Coahuila De Zaragoza,Mexico,8762,FALSE
dd924bee-ddc9-4991-bdba-0a4498e17ada,mtv.com,Distributor,5316 Messerschmidt Street,Atiquizaya,,El Salvador,8585,TRUE
f108aa68-bdaa-4960-a02c-8a2c7a97d468,seesaa.net,Storage,4 Darwin Drive,Portela,Braga,Portugal,5678,TRUE
a0f6d639-9acb-4866-a923-0627e9c1587b,yandex.ru,Storage,4924 Milwaukee Street,Cerme Kidul,,Indonesia,8413,FALSE
eefe5fcd-723f-4d9b-8e47-4169495cba38,wikispaces.com,Manufacturer,4309 Fieldstone Court,Qianshan,,China,5990,FALSE
de42a1ff-78a6-4542-a54b-053f511208c6,google.de,Manufacturer,27310 Dahle Point,Yehud,,Israel,9495,TRUE
dae0c837-091c-4048-96d0-d63d4391141d,icio.us,Manufacturer,6115 Melrose Place,Nevyts’ke,,Ukraine,9548,TRUE
581031e6-0f03-4cd8-bac5-76a2b641be23,cam.ac.uk,Retailer,8037 Forest Dale Way,Belyayevka,,Russia,6761,FALSE
5b459ebe-3b00-4464-a037-78eb8121e6e9,wufoo.com,Storage,1 Hallows Trail,Randegan,,Indonesia,5086,FALSE
30b23cdd-9534-4397-9f69-1006fca5d7a8,forbes.com,Distributor,79 Fisk Court,Nueva Loja,,Ecuador,5599,TRUE
4874771a-97bd-44e3-ba65-be3f91683499,cnbc.com,Retailer,941 Shoshone Park,Kandava,,Latvia,9602,TRUE
937891c6-cce6-4ba4-bfb5-89e6ae608f3b,psu.edu,Distributor,4212 Loomis Circle,Tonekābon,,Iran,7385,TRUE
08e0c199-5afd-48bd-adcb-5366c9dfbe50,ebay.com,Retailer,24 Valley Edge Avenue,Las Vegas,Nevada,United States,5561,TRUE
af60719a-ec9d-4dde-88f8-dfe9ab506afa,admin.ch,Manufacturer,0266 International Point,Laúndos,Porto,Portugal,8719,TRUE
2147cfe4-8203-4c3d-9ae2-aa62a3f0355f,soup.io,Distributor,918 Hoffman Place,Suban,,China,8059,FALSE
fe51dd13-f537-4f88-a61e-3b8297b9e9ce,theglobeandmail.com,Retailer,33 Burrows Avenue,Liulin,,China,6862,FALSE
ffc2ec1d-f046-4b64-8989-2510f630f72d,telegraph.co.uk,Distributor,084 Pierstorff Place,Dve Mogili,,Bulgaria,6225,FALSE
9aadb8a3-0db9-45dd-9eec-abc2b5af3017,ehow.com,Storage,55 Autumn Leaf Pass,Skien,Telemark,Norway,5569,FALSE
974a44cd-2f94-4dac-893d-298b4c37bc2b,businessweek.com,Distributor,4363 Gerald Trail,Xuanhua,,China,7127,TRUE
c1bd24b0-84fd-4b54-b0cb-c34e468a4045,ebay.co.uk,Manufacturer,7037 Heath Center,Dabao’anzhen,,China,6282,TRUE
09722f62-6d7f-4f1e-a3ff-56d01842e872,printfriendly.com,Manufacturer,302 Esker Lane,Nueva Italia,,Paraguay,6271,FALSE
8787b3c4-8804-4007-90f1-24fa8e2baffd,jigsy.com,Manufacturer,4741 Burrows Lane,Borova,,Ukraine,7567,FALSE
1c721e05-28fb-4210-a1a7-fdb9ddd39a7d,elegantthemes.com,Distributor,231 Troy Crossing,Piedra Blanca,,Dominican Republic,9908,FALSE
9b124d9e-6603-4209-8b20-74179c6507b2,answers.com,Retailer,1 Schiller Way,Bŭstonqal’a,,Tajikistan,9326,FALSE
04f5d495-f09a-4729-b830-9dbbfb3538c4,addthis.com,Manufacturer,839 Dawn Court,Margoyoso,,Indonesia,7055,FALSE
329e0c23-f349-4d38-aa1e-94fc2cd0d69e,soup.io,Manufacturer,3 Express Circle,Brataj,,Albania,9361,TRUE
0517af8e-fd02-4d13-b8e5-861b796cc3cd,zimbio.com,Storage,3 Summit Alley,Iwakuni,,Japan,8348,TRUE
2c729492-7463-4d32-aa7a-e85c263a67d5,ca.gov,Manufacturer,179 Northland Pass,Pescara,Abruzzi,Italy,7652,FALSE
480c3b5c-41be-4050-8d7a-d88dd38f9738,mediafire.com,Distributor,56 Monica Alley,Kuanda,,Russia,8209,TRUE
b0db1de8-4ca7-4866-9194-a8f1d20da8d8,seesaa.net,Manufacturer,2978 Shoshone Drive,Karanganyar,,Indonesia,6467,FALSE
6a1cb61f-89a0-48f6-ad96-35a6bd8ce800,vkontakte.ru,Manufacturer,134 Claremont Circle,Uji,,Japan,8927,FALSE
89fb85fd-5808-4050-b317-3105b50ab051,usatoday.com,Retailer,792 Troy Pass,Yinji,,China,5571,FALSE
19a5f36e-25a0-4882-8803-2447eb77df06,who.int,Storage,9414 Gina Center,Brodnica,,Poland,9129,FALSE
e957a817-f505-4273-b838-efad980f5d8e,who.int,Manufacturer,75798 Laurel Drive,Valence,Rhône-Alpes,France,7884,TRUE
d0a1704f-7c74-443b-b165-e5b5bea3e2a1,bloglines.com,Storage,10161 Arkansas Way,Granada,Andalucia,Spain,9990,FALSE
26f31b7c-024b-49f2-a585-1e3d529fcf2c,nifty.com,Retailer,0810 Kenwood Circle,Bīleh Savār,,Iran,6262,FALSE
08aa9a35-fb75-4864-b3f9-5cab58a7e92c,oakley.com,Storage,3383 Nelson Crossing,Bagneux,Île-de-France,France,6363,FALSE
37ba2604-12bf-4614-b5d2-8b39c939c2a1,auda.org.au,Retailer,0929 Saint Paul Center,Tonkino,,Russia,6750,TRUE
75bc0af2-a5e2-4036-bd40-4a947253391c,wired.com,Distributor,576 Buhler Street,Nová Paka,,Czech Republic,7030,FALSE
10cda058-6a02-4692-b825-d794e9bbff0c,mail.ru,Manufacturer,50475 Helena Drive,Shijiao,,China,9777,FALSE
425f8501-725c-4fe7-845f-3c04724104d2,ted.com,Storage,90969 Sachs Place,Calauan,,Philippines,7840,FALSE
0599cf09-8065-4ebd-96e9-d81e6aadbf2f,woothemes.com,Manufacturer,27827 Bobwhite Center,Erba,,China,5145,FALSE
90f22310-7d0b-4162-8567-1cea6bda3784,xinhuanet.com,Storage,201 Elgar Circle,Daxi,,China,9616,TRUE
e73ebdc9-427d-4158-9f8c-66b44f87c6df,jimdo.com,Manufacturer,93521 Cordelia Road,Umuahia,,Nigeria,9853,FALSE
b7bb23f0-6e59-4ea0-92b8-0d93179cc3d4,mtv.com,Manufacturer,65 Monument Street,Sitrah,,Bahrain,7030,FALSE
4de3c29a-e8e1-468e-83a1-a7539306f228,guardian.co.uk,Retailer,15 Maple Wood Pass,Baidoa,,Somalia,8851,FALSE
a8ad9099-f90c-4dad-a986-a1d3338afaaf,surveymonkey.com,Storage,2496 Nelson Plaza,Pancan,,Peru,9619,TRUE
c6f7364e-34f6-4055-b539-fff980ecc4f0,fda.gov,Retailer,7 Melrose Trail,Nagrak,,Indonesia,5478,FALSE
3c0f7932-8e64-48ad-8597-dbcdc1cc1dc6,auda.org.au,Distributor,575 Maple Wood Parkway,Kauran,,Philippines,5328,FALSE
8a1d28e4-b709-4a8b-ac12-f4ab1219c4d2,php.net,Storage,63 Burrows Street,Bandar Pusat Jengka,Pahang,Malaysia,8678,FALSE
53b9fb0c-cf7d-4f3e-b869-6ef37f93a0f2,yale.edu,Storage,6032 Schurz Park,Mugumu,,Tanzania,9217,FALSE
00f5203b-3dee-4052-acb1-41c4fc4efd6a,eventbrite.com,Manufacturer,2707 Prentice Crossing,Stockholm,Stockholm,Sweden,6219,FALSE
6755e820-f241-4096-8897-97805bd457f4,instagram.com,Storage,48485 Mcguire Crossing,Lushnjë,,Albania,9939,FALSE
9faae430-8325-4e8a-9d98-d84877bbe50d,engadget.com,Storage,52 Hauk Crossing,Cocabamba,,Peru,5190,TRUE
0392168f-015d-4608-8b01-0a6bf370e07b,123-reg.co.uk,Distributor,948 Sommers Crossing,Călăraşi,,Moldova,6285,FALSE
87a06af7-f876-43b4-8880-5ab17a959c2f,chronoengine.com,Retailer,14155 Randy Trail,Khorinsk,,Russia,9546,TRUE
3f80fe1e-39ac-4e99-90c6-c78c7b3dc3d8,tiny.cc,Storage,4 Banding Circle,Lacolle,Québec,Canada,9862,FALSE
9f1f428e-9640-458e-9c2d-cbc7ae6a9798,telegraph.co.uk,Distributor,07 Ilene Way,Mambusao,,Philippines,9434,FALSE
7dbd3236-ac5d-45f4-980a-d6e72d21a0b2,ihg.com,Retailer,105 Loeprich Terrace,Krasnoshchekovo,,Russia,5500,TRUE
5c303291-6bb3-4c7d-8ebf-7cb0bc0bcd04,gmpg.org,Retailer,16676 Canary Place,Qinghe,,China,6480,TRUE
ecb6b2b0-91cf-488d-b14a-8f39d412f9f2,istockphoto.com,Manufacturer,9033 Sommers Trail,Torre do Pinhão,Vila Real,Portugal,6720,TRUE
7f7ad61f-0b2c-4660-9063-4aab3b33c35a,addtoany.com,Distributor,47062 Fieldstone Junction,Joutseno,,Finland,5120,TRUE
dcb95e15-3886-45e3-a20a-d6fd22babeb8,tumblr.com,Manufacturer,6906 Northridge Parkway,Tajinan,,Indonesia,7047,TRUE
71821eb3-6195-4318-98fe-c000abed3e87,google.pl,Manufacturer,64871 Moulton Hill,Bulakgebang,,Indonesia,8375,FALSE
54a059f7-9725-4e79-8d5f-2301eeab7c65,loc.gov,Retailer,118 Mesta Trail,Bonabéri,,Cameroon,6848,FALSE
6c542947-9ed4-4a4f-aeff-f473bc096b97,drupal.org,Storage,65113 Namekagon Terrace,Žďár,,Czech Republic,7416,FALSE
4b6af219-4934-48ce-8165-cbb1aa069a39,jigsy.com,Manufacturer,93 Russell Hill,Wanghu,,China,6767,FALSE
aba588a7-fdf4-4ca5-be82-7fc9aa6b6cc3,ox.ac.uk,Distributor,637 Brickson Park Crossing,Dongda,,China,7396,FALSE
6fea24d9-c937-4468-82c5-e6ef12bd502e,dailymail.co.uk,Retailer,91 Loomis Junction,Tanūmah,,Saudi Arabia,7481,TRUE
4edefa0c-8dc2-424f-8e32-6171e148ac9f,soup.io,Distributor,05 Brentwood Pass,Chok Chai,,Thailand,8542,FALSE
7ca391b2-ed7f-4b2b-8ba5-1c9d11866132,acquirethisname.com,Manufacturer,0499 Dapin Trail,São Gotardo,,Brazil,8339,TRUE
1b32944a-d5e2-493a-a75f-d66bcba03793,ft.com,Distributor,77 Mcguire Avenue,La Fortuna,,Philippines,5550,FALSE
284b8555-1058-4fc6-a79e-341822ad0e78,addtoany.com,Storage,5 Texas Drive,Dammarie-les-Lys,Île-de-France,France,8595,TRUE
9aee1abd-f26e-4737-a2d6-961b03769370,photobucket.com,Manufacturer,1198 Welch Lane,Lyon,Rhône-Alpes,France,9401,FALSE
9de0d23f-0f3f-4cb9-b145-66af2844c96e,tripadvisor.com,Retailer,1637 Lillian Terrace,Mostek,,Czech Republic,5929,TRUE
28d766f6-4156-435f-94a9-33f4ec1c21d8,tumblr.com,Distributor,802 Kenwood Circle,Suvorovo,,Bulgaria,9587,TRUE
1bc3d2d4-cbf8-4a40-855c-ecf1c0690c79,google.nl,Storage,4075 Mariners Cove Road,Brongkah,,Indonesia,9239,FALSE
3ee32e41-99db-4a37-8753-3d0b8af2f10e,epa.gov,Retailer,8062 Karstens Crossing,West End,British Columbia,Canada,8396,TRUE
40b9542f-6efa-4d59-a9b2-d053fc21ea4f,google.fr,Storage,9472 Springs Lane,Manfalūţ,,Egypt,6958,FALSE
e445265c-66d6-464e-af4e-2b7381312b50,yahoo.co.jp,Storage,554 Moulton Center,Taiyu,,China,6896,FALSE
acab7e84-94a0-425d-9100-b492dcbe905a,sourceforge.net,Distributor,69754 Rowland Crossing,Bayt ‘Awwā,,Palestinian Territory,7728,FALSE
ec4c5344-e91d-450f-acf5-76c02d3cf095,nba.com,Manufacturer,41674 Basil Way,Kapuskasing,Ontario,Canada,9053,TRUE
8d01f687-14b5-4ee3-84c5-6a044c406c09,gravatar.com,Storage,99 Dakota Hill,Chandal Bā’ī,,Afghanistan,7934,FALSE
f6488112-c3f9-401d-8daa-5d742e55de40,nba.com,Manufacturer,83 Dwight Parkway,Jiulong,,China,9974,FALSE
6d7533e9-9b92-4b17-93ba-938ae78059f8,quantcast.com,Manufacturer,63696 Northfield Court,Hesheng,,China,8022,TRUE
3c46a90a-266c-44df-ba65-088092067024,businessinsider.com,Retailer,5 Fuller Park,Lomba do Loução,Ilha de São Miguel,Portugal,7992,TRUE
09058594-304f-46e3-b63a-e96fdc094b7e,aol.com,Retailer,000 Darwin Plaza,Lohayong,,Indonesia,6038,FALSE
2bfa4940-ac7f-48ec-b0b4-8394412f6a1f,squarespace.com,Storage,3 Scofield Plaza,Västra Frölunda,Västra Götaland,Sweden,5960,FALSE
3289c288-da90-447e-90ea-7acf5fad92d1,virginia.edu,Retailer,24 Amoth Center,Vokhaïkó,,Greece,5295,TRUE
243f3a7e-1bfb-4800-a5fc-046290331195,barnesandnoble.com,Retailer,985 Golf Way,Serednye,,Ukraine,6713,FALSE
594ec227-38cb-457f-8431-6fe6615ac178,omniture.com,Storage,3 Debs Street,La Poma,,Argentina,9860,TRUE
b79f87ff-e62c-4bd9-915a-68c255b4bc62,youku.com,Distributor,8147 Beilfuss Parkway,Łodygowice,,Poland,8341,TRUE
ce944cea-dfc4-4773-b007-3612dcd414a9,sogou.com,Storage,25 Chinook Parkway,Cervantes,,Philippines,6137,FALSE
8c2b8f0e-ada8-458d-9ee0-5d1b078b9a02,quantcast.com,Manufacturer,8 Monica Hill,Aozai,,China,8338,FALSE
a91ac28c-b599-4c70-b6bb-a2f794852ad3,ox.ac.uk,Retailer,88602 Darwin Street,Suban Jeriji,,Indonesia,6910,TRUE
abaf4150-b27b-44f8-a292-8aa5c7573504,usatoday.com,Retailer,7535 Warbler Street,Lindavista,Chiapas,Mexico,9545,FALSE
ce6c6b9a-a71b-4f65-9d85-a276e3a70cc1,etsy.com,Distributor,56347 Forster Drive,Gelan,,China,9330,TRUE
5fa866f8-2c58-4adb-ba30-5f73bdb24ff2,ehow.com,Retailer,6 New Castle Way,Sịa,,Vietnam,7713,TRUE
23315023-d38f-414a-a826-1ef6c59bb54f,twitter.com,Distributor,0695 Quincy Alley,Göteborg,Västra Götaland,Sweden,9743,TRUE
223b8e53-96b5-45e6-b552-713ecc803693,businessweek.com,Manufacturer,70 Washington Court,Umuahia,,Nigeria,7266,TRUE
9a8cc77d-b1dc-473c-9df0-178ce4d522c9,vk.com,Retailer,8 Valley Edge Parkway,Abilay,,Philippines,6878,FALSE
1f3bd24e-a357-40cf-9698-d68005eafbd9,addtoany.com,Distributor,47771 Harper Point,Capalonga,,Philippines,6856,TRUE
4c39ef20-d866-464c-8146-02a73e73a78b,cdc.gov,Distributor,266 Golden Leaf Street,Al Manshāh,,Egypt,8135,FALSE
a1aa032a-99a8-4dad-8bdb-3fab3a6cd4ab,infoseek.co.jp,Retailer,5 Hooker Junction,Zaplavnoye,,Russia,5006,FALSE
9b9843bc-6ac1-4ea2-9f57-d4265fcc5882,behance.net,Distributor,64898 Anzinger Pass,Pawili,,Philippines,7980,FALSE
8516d49f-f553-491e-9216-077f20cb0d53,cnbc.com,Manufacturer,3677 Fallview Place,Ketangi,,Indonesia,6826,FALSE
6f417bae-ec38-4d8f-b82b-53c3215cb492,nydailynews.com,Retailer,1088 Waxwing Street,Changnyeong,,South Korea,8392,TRUE
863f0518-321e-4744-ba88-16bc4b567903,weebly.com,Manufacturer,61903 Bluejay Terrace,Tegalloa,,Indonesia,7826,TRUE
cbb54cda-88c0-4f64-bc4f-b9413bbc1c38,quantcast.com,Distributor,9557 Debra Plaza,Talibura,,Indonesia,6680,TRUE
160f6992-d767-4df2-8722-e6b4e719381a,reference.com,Retailer,4 Almo Drive,Bungereng,,Indonesia,8798,TRUE
3e918b00-999a-48a1-8413-f19de4dc06ae,ed.gov,Retailer,63769 Packers Hill,Estância Velha,,Brazil,8037,TRUE
caa8634b-b407-413b-8a69-ecfdf8d34542,ameblo.jp,Retailer,1 Ryan Drive,Santa Lucía,,Colombia,9239,FALSE
8d5bec58-1d10-4a2f-933c-8a1e966d8073,comsenz.com,Storage,7562 Gateway Place,Lyublino,,Russia,5572,TRUE
4400d786-8a2f-4407-bffb-7475bc0738f5,who.int,Distributor,4378 Mandrake Pass,Jiujie,,China,8545,TRUE
4c3deeab-dd47-4844-bf76-1c440041d5b6,tripod.com,Distributor,50 Carpenter Street,San Andres,,Philippines,5776,FALSE
dca817bc-6ba3-4c0c-a5a1-fe9e709d9270,mozilla.org,Storage,552 Valley Edge Alley,Kanada,,Indonesia,9970,FALSE
1384cf94-0c6a-47ab-8a1e-068fc3b58dd6,wsj.com,Distributor,96 Hudson Center,Liuzhou,,China,7465,TRUE
e7fbfdf4-eaca-4999-86b6-5664c5a942ae,nbcnews.com,Distributor,131 Buell Road,Cuijiamatou,,China,6889,TRUE
1f3cd0b2-03ee-4dc9-b599-b400a132d5ba,stanford.edu,Manufacturer,1 Paget Junction,Tyret’ Pervaya,,Russia,9371,TRUE
e52e7140-50fd-473e-8ff0-25df9b729466,ebay.com,Storage,647 Del Mar Plaza,Huangcun,,China,7577,FALSE
3f83d2d6-c9a4-496e-969a-0a3eb9e74998,1und1.de,Manufacturer,42 Amoth Alley,Zhuhong,,China,7910,TRUE
03168184-5e65-4600-a193-2650023554ca,nba.com,Storage,20 Little Fleur Crossing,Xiaotao,,China,7627,FALSE
ebfc8a8d-cd57-432a-9905-224188424fab,hexun.com,Distributor,06451 Chinook Avenue,Renyi,,China,8909,TRUE
2b807f76-f646-4f66-9739-e16a158e8713,shinystat.com,Retailer,241 Brown Avenue,Serowe,,Botswana,6605,FALSE
0eee5723-e5ed-4220-a83c-1d620a8dd014,economist.com,Retailer,26707 Southridge Point,Su’ao,,China,6864,FALSE
4cfe0dfc-e110-438c-bf72-8987f1e526fa,alibaba.com,Distributor,58 Monument Way,Illkirch-Graffenstaden,Alsace,France,9809,TRUE
82fa5c1f-1544-4366-a70c-de1b6d652f4c,wufoo.com,Retailer,54 Farragut Plaza,Pueblo Nuevo,,Peru,6461,FALSE
1fce4746-1927-4981-a10c-b2bd97780b96,blogger.com,Storage,225 Lillian Avenue,Salaš Crnobarski,,Serbia,9399,FALSE
